{"type": "FeatureCollection", "features": [{"type": "Feature", "properties": {"type": "departement", "nom": "Grand'Anse"}, "geometry": {"type": "MultiPolygon", "coordinates": [[[[-73.69868, 18.6187], [-73.70124, 18.60803], [-73.70822, 18.59964], [-73.73271, 18.58427], [-73.74348, 18.5818], [-73.74758, 18.58504], [-73.75497, 18.5845], [-73.75462, 18.58647], [-73.76141, 18.59017], [-73.7612, 18.59302], [-73.77054, 18.5942], [-73.77319, 18.5913], [-73.77563, 18.59504], [-73.79198, 18.59785], [-73.79676, 18.60324], [-73.79522, 18.60484], [-73.7966, 18.62084], [-73.79375, 18.62624], [-73.78767, 18.6283], [-73.76876, 18.64202], [-73.75921, 18.6444], [-73.74479, 18.64271], [-73.74206, 18.63928], [-73.72579, 18.63302], [-73.7109, 18.63074], [-73.70233, 18.6266], [-73.69868, 18.6187]]], [[[-73.73143, 18.54285], [-73.73152, 18.54072], [-73.73739, 18.5361], [-73.74328, 18.52324], [-73.75394, 18.51712], [-73.76829, 18.50191], [-73.76733, 18.49649], [-73.74237, 18.48929], [-73.73799, 18.48408], [-73.74252, 18.47776], [-73.76546, 18.46545], [-73.76629, 18.45947], [-73.77487, 18.45417], [-73.7758, 18.44222], [-73.7789, 18.4413], [-73.78002, 18.42395], [-73.78562, 18.42407], [-73.8213, 18.4129], [-73.83542, 18.41034], [-73.84288, 18.40677], [-73.8684, 18.40717], [-73.87513, 18.40557], [-73.87864, 18.40739], [-73.90343, 18.40062], [-73.90569, 18.39902], [-73.9062, 18.38924], [-73.89789, 18.37706], [-73.89294, 18.37537], [-73.8956, 18.36306], [-73.90658, 18.3622], [-73.92291, 18.36411], [-73.92609, 18.36651], [-73.93093, 18.36553], [-73.94278, 18.37051], [-73.96431, 18.3688], [-73.97357, 18.37054], [-73.97607, 18.37289], [-73.97771, 18.37131], [-73.97853, 18.37331], [-73.98379, 18.37376], [-74.00276, 18.38373], [-74.01558, 18.38194], [-74.03189, 18.38409], [-74.03554, 18.38748], [-74.04707, 18.38947], [-74.06098, 18.40341], [-74.08186, 18.40764], [-74.10085, 18.40275], [-74.10655, 18.4035], [-74.11823, 18.39684], [-74.12408, 18.39636], [-74.13177, 18.40105], [-74.18109, 18.39202], [-74.19639, 18.39779], [-74.20645, 18.39812], [-74.21499, 18.40396], [-74.21708, 18.40211], [-74.21746, 18.39202], [-74.22323, 18.38828], [-74.22081, 18.38348], [-74.22289, 18.38005], [-74.23047, 18.38004], [-74.2355, 18.37693], [-74.24968, 18.37483], [-74.26034, 18.37649], [-74.26507, 18.38137], [-74.27701, 18.38136], [-74.29392, 18.39474], [-74.29615, 18.39181], [-74.29474, 18.38549], [-74.29609, 18.37901], [-74.30218, 18.37216], [-74.30861, 18.36703], [-74.31764, 18.36423], [-74.32453, 18.36447], [-74.32918, 18.36097], [-74.33499, 18.36283], [-74.34006, 18.36195], [-74.34313, 18.3643], [-74.35577, 18.36019], [-74.3655, 18.36268], [-74.37032, 18.36024], [-74.38253, 18.36065], [-74.38787, 18.36286], [-74.38966, 18.36043], [-74.39971, 18.35757], [-74.41023, 18.36068], [-74.42309, 18.35716], [-74.43037, 18.35977], [-74.43235, 18.35891], [-74.43241, 18.3634], [-74.43675, 18.36627], [-74.43573, 18.36094], [-74.4411, 18.35702], [-74.44904, 18.35851], [-74.44663, 18.36997], [-74.45191, 18.37708], [-74.45224, 18.38285], [-74.45014, 18.38427], [-74.44827, 18.39121], [-74.44892, 18.39704], [-74.4526, 18.40311], [-74.46433, 18.41317], [-74.46919, 18.41526], [-74.47311, 18.41583], [-74.47543, 18.41397], [-74.4804, 18.41553], [-74.47608, 18.41619], [-74.47282, 18.41939], [-74.47489, 18.42197], [-74.47317, 18.424], [-74.47482, 18.42738], [-74.47896, 18.42722], [-74.48018, 18.429], [-74.47259, 18.43392], [-74.47375, 18.44022], [-74.47137, 18.44065], [-74.46956, 18.44379], [-74.47142, 18.44625], [-74.46935, 18.4469], [-74.47088, 18.44964], [-74.46821, 18.44961], [-74.46526, 18.45261], [-74.46514, 18.45879], [-74.45929, 18.46169], [-74.46167, 18.4651], [-74.45407, 18.4692], [-74.45246, 18.47349], [-74.45466, 18.47607], [-74.45277, 18.47998], [-74.45294, 18.48634], [-74.46286, 18.49079], [-74.45765, 18.49723], [-74.45948, 18.49904], [-74.45355, 18.50302], [-74.451, 18.50769], [-74.44216, 18.51571], [-74.44136, 18.51854], [-74.44283, 18.51957], [-74.44285, 18.52494], [-74.44467, 18.52566], [-74.44304, 18.52777], [-74.44483, 18.53235], [-74.44047, 18.53723], [-74.43564, 18.53787], [-74.43423, 18.54507], [-74.43625, 18.54886], [-74.43473, 18.55031], [-74.43188, 18.54949], [-74.43134, 18.55249], [-74.42576, 18.55779], [-74.41497, 18.58207], [-74.41634, 18.59439], [-74.42213, 18.59591], [-74.42744, 18.60047], [-74.42893, 18.60518], [-74.4247, 18.60796], [-74.4248, 18.61619], [-74.40974, 18.62371], [-74.40717, 18.62994], [-74.39939, 18.63014], [-74.39517, 18.6272], [-74.39505, 18.63222], [-74.38857, 18.63612], [-74.38973, 18.64103], [-74.38573, 18.64402], [-74.37637, 18.63587], [-74.36978, 18.63723], [-74.36755, 18.63594], [-74.36362, 18.64045], [-74.36031, 18.6394], [-74.35286, 18.64301], [-74.34915, 18.64842], [-74.34429, 18.64753], [-74.34372, 18.65134], [-74.3372, 18.64797], [-74.33001, 18.65536], [-74.31515, 18.65432], [-74.30935, 18.64963], [-74.30545, 18.65287], [-74.3075, 18.65944], [-74.29682, 18.66192], [-74.29106, 18.65988], [-74.28863, 18.65738], [-74.28793, 18.65247], [-74.27946, 18.64785], [-74.27627, 18.65008], [-74.27486, 18.65441], [-74.27031, 18.65553], [-74.26829, 18.66041], [-74.26459, 18.66264], [-74.26272, 18.66904], [-74.25808, 18.67077], [-74.2497, 18.66929], [-74.24946, 18.66606], [-74.24703, 18.66517], [-74.24313, 18.67002], [-74.23342, 18.67207], [-74.1952, 18.67553], [-74.19286, 18.67256], [-74.15579, 18.66646], [-74.14623, 18.65978], [-74.14039, 18.66371], [-74.13015, 18.65893], [-74.12676, 18.65357], [-74.11918, 18.6539], [-74.11927, 18.65104], [-74.11407, 18.64989], [-74.10883, 18.64575], [-74.11167, 18.64564], [-74.11232, 18.64216], [-74.10845, 18.63604], [-74.08769, 18.62473], [-74.08297, 18.61831], [-74.06704, 18.61119], [-74.03408, 18.60273], [-74.00696, 18.60092], [-74.00444, 18.59925], [-73.9927, 18.60261], [-73.98542, 18.60279], [-73.98401, 18.60038], [-73.97911, 18.60187], [-73.97742, 18.59997], [-73.96997, 18.60191], [-73.96512, 18.59998], [-73.96274, 18.60162], [-73.95458, 18.5966], [-73.95066, 18.59649], [-73.94755, 18.59244], [-73.93999, 18.58822], [-73.93569, 18.58914], [-73.93393, 18.59369], [-73.92714, 18.59426], [-73.9242, 18.58999], [-73.91633, 18.59016], [-73.917, 18.58742], [-73.91474, 18.58757], [-73.91499, 18.58611], [-73.90913, 18.58786], [-73.91105, 18.58583], [-73.91476, 18.58577], [-73.91486, 18.58147], [-73.91874, 18.581], [-73.91695, 18.5782], [-73.91213, 18.57879], [-73.91286, 18.57466], [-73.90827, 18.57268], [-73.90601, 18.57739], [-73.90434, 18.57691], [-73.90478, 18.57415], [-73.90235, 18.57247], [-73.90247, 18.57074], [-73.90468, 18.57097], [-73.90317, 18.56641], [-73.90113, 18.56915], [-73.88758, 18.56797], [-73.88553, 18.57038], [-73.87658, 18.56975], [-73.87304, 18.57235], [-73.87244, 18.57014], [-73.86981, 18.56952], [-73.86533, 18.57191], [-73.85746, 18.56899], [-73.85545, 18.57264], [-73.85462, 18.57106], [-73.8525, 18.57262], [-73.85151, 18.56907], [-73.85299, 18.56692], [-73.85012, 18.56617], [-73.84711, 18.57225], [-73.84654, 18.56988], [-73.84177, 18.57208], [-73.84254, 18.57038], [-73.84018, 18.57016], [-73.83975, 18.56713], [-73.83615, 18.56912], [-73.83709, 18.56655], [-73.83365, 18.56668], [-73.83456, 18.56347], [-73.83223, 18.56537], [-73.83128, 18.56269], [-73.82699, 18.56283], [-73.82558, 18.5606], [-73.82201, 18.5628], [-73.82075, 18.55865], [-73.81837, 18.56081], [-73.81724, 18.55724], [-73.81411, 18.56108], [-73.81295, 18.55949], [-73.81484, 18.55651], [-73.81199, 18.55819], [-73.81179, 18.55636], [-73.81017, 18.55762], [-73.80639, 18.55588], [-73.80329, 18.55345], [-73.80374, 18.54951], [-73.80184, 18.55228], [-73.79669, 18.54953], [-73.79741, 18.54605], [-73.79355, 18.54836], [-73.79588, 18.54565], [-73.79088, 18.54575], [-73.79271, 18.54486], [-73.78873, 18.54008], [-73.79072, 18.53732], [-73.78989, 18.535], [-73.78842, 18.53855], [-73.78421, 18.5398], [-73.78156, 18.53854], [-73.78012, 18.54019], [-73.77938, 18.53572], [-73.77676, 18.5359], [-73.77808, 18.53929], [-73.77517, 18.54226], [-73.77565, 18.53873], [-73.77409, 18.54055], [-73.77308, 18.53848], [-73.77191, 18.54174], [-73.7661, 18.54406], [-73.76172, 18.54006], [-73.75804, 18.54488], [-73.75303, 18.54246], [-73.75185, 18.54548], [-73.74751, 18.54457], [-73.74213, 18.54784], [-73.7402, 18.54619], [-73.74003, 18.5478], [-73.73404, 18.55033], [-73.73161, 18.54971], [-73.73553, 18.54585], [-73.73143, 18.54285]]]]}}, {"type": "Feature", "properties": {"type": "departement", "nom": "Nippes"}, "geometry": {"type": "MultiPolygon", "coordinates": [[[[-72.99492, 18.30592], [-72.99806, 18.29873], [-73.01017, 18.28798], [-73.01289, 18.27926], [-73.0131, 18.26675], [-73.01562, 18.2611], [-73.01345, 18.25558], [-73.00903, 18.25237], [-73.01202, 18.24782], [-73.00883, 18.24056], [-73.00998, 18.23106], [-73.01311, 18.22683], [-73.01125, 18.22274], [-73.01585, 18.22146], [-73.01674, 18.22418], [-73.0141, 18.2256], [-73.01427, 18.22761], [-73.02008, 18.2245], [-73.02282, 18.22519], [-73.01827, 18.23043], [-73.02058, 18.23283], [-73.01669, 18.23665], [-73.03069, 18.24056], [-73.02887, 18.2475], [-73.02992, 18.25114], [-73.03299, 18.25116], [-73.033, 18.25475], [-73.03781, 18.25652], [-73.03591, 18.25943], [-73.04165, 18.25968], [-73.03866, 18.26268], [-73.03981, 18.26619], [-73.03798, 18.2702], [-73.04299, 18.27067], [-73.0408, 18.2717], [-73.04235, 18.27717], [-73.04839, 18.28007], [-73.05236, 18.28699], [-73.04381, 18.29437], [-73.0468, 18.29675], [-73.04222, 18.30035], [-73.04617, 18.30071], [-73.04693, 18.30246], [-73.04993, 18.29966], [-73.0523, 18.30286], [-73.05588, 18.3006], [-73.05713, 18.30332], [-73.05937, 18.30303], [-73.0644, 18.3146], [-73.06698, 18.31564], [-73.06831, 18.32292], [-73.07201, 18.3228], [-73.06959, 18.32715], [-73.07068, 18.33102], [-73.07346, 18.32986], [-73.07236, 18.32727], [-73.08001, 18.3294], [-73.08054, 18.33471], [-73.08581, 18.33642], [-73.08677, 18.33893], [-73.09679, 18.34498], [-73.10045, 18.35305], [-73.11046, 18.36185], [-73.11466, 18.36052], [-73.11859, 18.36297], [-73.12519, 18.35886], [-73.13385, 18.36382], [-73.14163, 18.36474], [-73.15658, 18.3502], [-73.1645, 18.35056], [-73.17322, 18.35613], [-73.17941, 18.35655], [-73.18682, 18.36286], [-73.19513, 18.36406], [-73.20459, 18.36218], [-73.21767, 18.36253], [-73.22817, 18.3523], [-73.24723, 18.35423], [-73.25918, 18.35284], [-73.2627, 18.35388], [-73.26683, 18.35985], [-73.27001, 18.35876], [-73.27706, 18.36117], [-73.28687, 18.36771], [-73.29508, 18.36775], [-73.29403, 18.3658], [-73.29631, 18.36553], [-73.29944, 18.36864], [-73.3014, 18.36662], [-73.31871, 18.36273], [-73.32223, 18.36393], [-73.32482, 18.36776], [-73.32754, 18.36716], [-73.3306, 18.37078], [-73.33184, 18.36882], [-73.33643, 18.3694], [-73.34837, 18.34861], [-73.35522, 18.34251], [-73.36299, 18.34525], [-73.38586, 18.3471], [-73.40114, 18.346], [-73.40453, 18.34755], [-73.41227, 18.34202], [-73.41844, 18.34154], [-73.42923, 18.34451], [-73.45879, 18.33787], [-73.47041, 18.33762], [-73.47183, 18.34067], [-73.48216, 18.34228], [-73.49322, 18.3381], [-73.50448, 18.3365], [-73.55459, 18.33613], [-73.56148, 18.34733], [-73.56436, 18.34447], [-73.56435, 18.34655], [-73.5563, 18.34982], [-73.55726, 18.35836], [-73.55493, 18.36997], [-73.5462, 18.37542], [-73.543, 18.37583], [-73.54178, 18.37365], [-73.53863, 18.38462], [-73.54384, 18.38625], [-73.54634, 18.3893], [-73.54865, 18.38751], [-73.55262, 18.39049], [-73.55897, 18.39124], [-73.55945, 18.39943], [-73.56224, 18.40142], [-73.57388, 18.40119], [-73.5789, 18.4072], [-73.57799, 18.42053], [-73.58521, 18.4209], [-73.59154, 18.41885], [-73.60166, 18.42044], [-73.60965, 18.42713], [-73.6261, 18.42567], [-73.63154, 18.42201], [-73.63889, 18.42496], [-73.64357, 18.43021], [-73.64797, 18.42983], [-73.6534, 18.42584], [-73.66816, 18.43334], [-73.66993, 18.43019], [-73.67203, 18.43074], [-73.67156, 18.40291], [-73.67669, 18.39799], [-73.68197, 18.40009], [-73.70234, 18.42007], [-73.70695, 18.42111], [-73.72146, 18.41473], [-73.73779, 18.41599], [-73.74349, 18.42059], [-73.75916, 18.4235], [-73.771, 18.41768], [-73.78002, 18.42395], [-73.7789, 18.4413], [-73.7758, 18.44222], [-73.77487, 18.45417], [-73.76629, 18.45947], [-73.76546, 18.46545], [-73.74252, 18.47776], [-73.73799, 18.48408], [-73.74237, 18.48929], [-73.76169, 18.49421], [-73.76733, 18.49649], [-73.76881, 18.49898], [-73.76533, 18.50611], [-73.75757, 18.51179], [-73.75394, 18.51712], [-73.74328, 18.52324], [-73.73739, 18.5361], [-73.73152, 18.54072], [-73.73143, 18.54285], [-73.73553, 18.54585], [-73.73122, 18.55075], [-73.72112, 18.55178], [-73.71941, 18.5586], [-73.7339, 18.55737], [-73.73004, 18.56089], [-73.73106, 18.56339], [-73.72773, 18.56234], [-73.72866, 18.56472], [-73.72704, 18.56337], [-73.72575, 18.56487], [-73.72699, 18.56655], [-73.71947, 18.56481], [-73.71958, 18.56901], [-73.71734, 18.57039], [-73.71857, 18.57156], [-73.70269, 18.57705], [-73.68713, 18.57804], [-73.66962, 18.5736], [-73.65618, 18.57244], [-73.6349, 18.58188], [-73.62554, 18.58403], [-73.57776, 18.58931], [-73.56737, 18.58722], [-73.56367, 18.58132], [-73.57747, 18.56137], [-73.58772, 18.55397], [-73.60695, 18.55269], [-73.61314, 18.55588], [-73.61707, 18.55402], [-73.61882, 18.55648], [-73.62669, 18.5587], [-73.6398, 18.55911], [-73.64167, 18.55753], [-73.64404, 18.55837], [-73.64256, 18.55931], [-73.64356, 18.56043], [-73.64534, 18.55943], [-73.64347, 18.55636], [-73.64436, 18.55437], [-73.66612, 18.55312], [-73.6614, 18.55792], [-73.66171, 18.55987], [-73.66621, 18.55715], [-73.67498, 18.56468], [-73.68815, 18.5657], [-73.69123, 18.56473], [-73.69005, 18.56224], [-73.68027, 18.56021], [-73.68253, 18.5538], [-73.68569, 18.55447], [-73.6872, 18.55221], [-73.69252, 18.55372], [-73.69232, 18.55131], [-73.69626, 18.55049], [-73.69865, 18.55356], [-73.69992, 18.54965], [-73.70814, 18.54705], [-73.71046, 18.54402], [-73.7172, 18.54868], [-73.71664, 18.55128], [-73.7249, 18.54557], [-73.72502, 18.54289], [-73.72316, 18.54214], [-73.72099, 18.54345], [-73.72107, 18.54623], [-73.71788, 18.54198], [-73.71585, 18.54399], [-73.71575, 18.54219], [-73.71069, 18.54064], [-73.71185, 18.54312], [-73.7083, 18.54142], [-73.70024, 18.54349], [-73.69959, 18.54126], [-73.69636, 18.54518], [-73.69382, 18.54553], [-73.69449, 18.54064], [-73.69287, 18.53939], [-73.68911, 18.54213], [-73.68948, 18.54501], [-73.68432, 18.54502], [-73.68455, 18.53644], [-73.68169, 18.53808], [-73.6807, 18.54485], [-73.67773, 18.54492], [-73.67761, 18.54232], [-73.67683, 18.54355], [-73.67447, 18.54031], [-73.67002, 18.54238], [-73.66949, 18.54081], [-73.66603, 18.54248], [-73.66571, 18.54071], [-73.66351, 18.54119], [-73.66199, 18.53777], [-73.66312, 18.53519], [-73.66023, 18.53492], [-73.66004, 18.53287], [-73.66613, 18.52833], [-73.66431, 18.5245], [-73.66681, 18.52525], [-73.66991, 18.51751], [-73.67195, 18.51701], [-73.67063, 18.51336], [-73.67298, 18.5093], [-73.67261, 18.50747], [-73.66364, 18.50613], [-73.66515, 18.50505], [-73.66455, 18.50251], [-73.66176, 18.49912], [-73.64703, 18.50106], [-73.64733, 18.50239], [-73.63886, 18.50408], [-73.63633, 18.50643], [-73.63372, 18.5037], [-73.63025, 18.50466], [-73.62964, 18.50241], [-73.6258, 18.5016], [-73.62732, 18.50471], [-73.62315, 18.50409], [-73.6229, 18.49951], [-73.61815, 18.5026], [-73.61465, 18.50087], [-73.61142, 18.50322], [-73.61118, 18.50053], [-73.60794, 18.50361], [-73.608, 18.5012], [-73.59888, 18.50367], [-73.59772, 18.50087], [-73.59262, 18.50409], [-73.58772, 18.50148], [-73.58653, 18.5043], [-73.58338, 18.50547], [-73.57844, 18.50445], [-73.57912, 18.50956], [-73.57779, 18.5099], [-73.57687, 18.50663], [-73.57531, 18.50776], [-73.5757, 18.50549], [-73.57066, 18.50524], [-73.56751, 18.50918], [-73.56411, 18.50809], [-73.56403, 18.51297], [-73.56176, 18.51115], [-73.56278, 18.50902], [-73.55905, 18.50986], [-73.55491, 18.51337], [-73.55421, 18.5165], [-73.55001, 18.51729], [-73.54823, 18.52048], [-73.54323, 18.52234], [-73.5391, 18.51987], [-73.5363, 18.52117], [-73.53941, 18.52247], [-73.53891, 18.52403], [-73.53017, 18.52296], [-73.53189, 18.52068], [-73.52813, 18.51756], [-73.52566, 18.51895], [-73.52583, 18.52573], [-73.52052, 18.52924], [-73.51246, 18.52616], [-73.51212, 18.52869], [-73.50769, 18.52857], [-73.48226, 18.52583], [-73.47101, 18.52255], [-73.45745, 18.52869], [-73.42229, 18.52021], [-73.40681, 18.52052], [-73.39326, 18.51442], [-73.36444, 18.51095], [-73.34974, 18.50707], [-73.34739, 18.50328], [-73.34488, 18.50564], [-73.33087, 18.50335], [-73.31097, 18.4939], [-73.294, 18.48315], [-73.26963, 18.48365], [-73.23941, 18.47619], [-73.23538, 18.47813], [-73.23023, 18.47747], [-73.21271, 18.48086], [-73.20125, 18.48772], [-73.18867, 18.4897], [-73.16035, 18.48551], [-73.14738, 18.4795], [-73.13803, 18.47881], [-73.12522, 18.47494], [-73.12519, 18.46664], [-73.1219, 18.4701], [-73.12001, 18.46588], [-73.1247, 18.46247], [-73.12263, 18.46311], [-73.12295, 18.46118], [-73.12145, 18.4611], [-73.11944, 18.46241], [-73.11799, 18.46066], [-73.11784, 18.46317], [-73.11699, 18.46138], [-73.11393, 18.46211], [-73.11636, 18.45818], [-73.11056, 18.45327], [-73.11074, 18.45552], [-73.1061, 18.45644], [-73.1068, 18.45431], [-73.10373, 18.45166], [-73.10813, 18.45297], [-73.10858, 18.45121], [-73.10515, 18.44662], [-73.10396, 18.44783], [-73.09148, 18.44289], [-73.09026, 18.44696], [-73.08728, 18.44691], [-73.0848, 18.44949], [-73.0735, 18.44676], [-73.07066, 18.45361], [-73.0726, 18.45475], [-73.06978, 18.45806], [-73.06336, 18.45711], [-73.05668, 18.46125], [-73.05068, 18.46108], [-73.05477, 18.45237], [-73.04858, 18.44554], [-73.04457, 18.4375], [-73.0519, 18.43554], [-73.05374, 18.43221], [-73.05134, 18.43084], [-73.0463, 18.41778], [-73.03743, 18.40918], [-73.0396, 18.40707], [-73.03588, 18.39775], [-73.0297, 18.38901], [-73.02361, 18.3875], [-73.01901, 18.38311], [-73.02557, 18.37467], [-73.01469, 18.3669], [-73.01089, 18.36065], [-73.01372, 18.3525], [-73.01875, 18.35109], [-73.02015, 18.34851], [-73.01309, 18.33624], [-73.0006, 18.32905], [-72.99668, 18.32401], [-72.99492, 18.30592]]]]}}, {"type": "Feature", "properties": {"type": "departement", "nom": "Sud"}, "geometry": {"type": "MultiPolygon", "coordinates": [[[[-73.57132, 18.06943], [-73.57613, 18.06108], [-73.58554, 18.05624], [-73.59264, 18.05801], [-73.60317, 18.05613], [-73.65081, 18.0609], [-73.6584, 18.05801], [-73.67019, 18.06071], [-73.67471, 18.0597], [-73.6764, 18.06108], [-73.67621, 18.06585], [-73.68759, 18.07765], [-73.6873, 18.0831], [-73.70545, 18.09273], [-73.70188, 18.0952], [-73.70781, 18.1007], [-73.70821, 18.10481], [-73.70536, 18.11001], [-73.69964, 18.10916], [-73.69659, 18.10242], [-73.69156, 18.10307], [-73.694, 18.10432], [-73.6919, 18.1075], [-73.6854, 18.10561], [-73.68491, 18.10413], [-73.68735, 18.10313], [-73.68287, 18.09972], [-73.68382, 18.09831], [-73.68086, 18.09948], [-73.68255, 18.1009], [-73.68037, 18.10365], [-73.67649, 18.09627], [-73.6716, 18.09959], [-73.66164, 18.08898], [-73.65138, 18.08492], [-73.6393, 18.08291], [-73.62242, 18.08939], [-73.61067, 18.09899], [-73.60783, 18.09807], [-73.60636, 18.10014], [-73.60285, 18.10041], [-73.58264, 18.08728], [-73.57132, 18.06943]]], [[[-73.00116, 18.2075], [-73.00232, 18.20609], [-73.00897, 18.20687], [-73.00912, 18.20418], [-73.00388, 18.19936], [-73.0102, 18.19333], [-73.00354, 18.18577], [-73.01182, 18.18675], [-73.0231, 18.18168], [-73.04128, 18.18161], [-73.0556, 18.18254], [-73.06676, 18.18716], [-73.07871, 18.18521], [-73.10755, 18.18906], [-73.11164, 18.19145], [-73.14065, 18.19696], [-73.15212, 18.20357], [-73.16453, 18.206], [-73.17192, 18.21137], [-73.17816, 18.20914], [-73.18575, 18.21128], [-73.20712, 18.21013], [-73.21143, 18.2133], [-73.22299, 18.21125], [-73.23236, 18.21306], [-73.23607, 18.21187], [-73.24145, 18.21652], [-73.26662, 18.21522], [-73.27048, 18.21747], [-73.26947, 18.22288], [-73.27186, 18.22836], [-73.27829, 18.23211], [-73.29349, 18.23264], [-73.30852, 18.23029], [-73.32168, 18.22361], [-73.32891, 18.22326], [-73.33169, 18.22081], [-73.34121, 18.22162], [-73.34333, 18.21933], [-73.34649, 18.22114], [-73.34787, 18.22015], [-73.34871, 18.22412], [-73.35474, 18.22431], [-73.3583, 18.21681], [-73.36241, 18.21601], [-73.36454, 18.21854], [-73.37001, 18.21752], [-73.37004, 18.22536], [-73.36579, 18.23829], [-73.3617, 18.24181], [-73.35739, 18.24185], [-73.35656, 18.24821], [-73.35185, 18.25024], [-73.35077, 18.2531], [-73.35332, 18.25174], [-73.35228, 18.25452], [-73.35561, 18.25672], [-73.3667, 18.25877], [-73.36801, 18.26256], [-73.37054, 18.26254], [-73.36964, 18.26552], [-73.37148, 18.26442], [-73.37474, 18.26833], [-73.37805, 18.26784], [-73.38303, 18.27311], [-73.38194, 18.26859], [-73.38345, 18.26828], [-73.38674, 18.27143], [-73.39007, 18.28043], [-73.39244, 18.27902], [-73.38988, 18.26492], [-73.39072, 18.26105], [-73.39319, 18.25952], [-73.3938, 18.26337], [-73.39148, 18.26596], [-73.39239, 18.27013], [-73.39636, 18.2688], [-73.39311, 18.26719], [-73.39668, 18.26699], [-73.39772, 18.26385], [-73.399, 18.26773], [-73.39963, 18.26399], [-73.40269, 18.26508], [-73.40215, 18.26683], [-73.4047, 18.26586], [-73.40317, 18.26069], [-73.4058, 18.25983], [-73.40712, 18.26238], [-73.41, 18.26118], [-73.40904, 18.25615], [-73.40393, 18.25658], [-73.40725, 18.24922], [-73.40945, 18.24977], [-73.40918, 18.25263], [-73.4204, 18.2558], [-73.42823, 18.25572], [-73.43075, 18.25394], [-73.43032, 18.26231], [-73.4347, 18.26527], [-73.43886, 18.26303], [-73.44278, 18.2654], [-73.44448, 18.2633], [-73.44356, 18.25878], [-73.44829, 18.26652], [-73.45057, 18.26688], [-73.45336, 18.26625], [-73.45486, 18.2624], [-73.4516, 18.25517], [-73.45903, 18.26174], [-73.47527, 18.25734], [-73.47727, 18.25513], [-73.47494, 18.25], [-73.47837, 18.25011], [-73.47875, 18.25561], [-73.48157, 18.25722], [-73.48512, 18.2547], [-73.492, 18.25611], [-73.49347, 18.25183], [-73.50079, 18.24655], [-73.50786, 18.2451], [-73.50278, 18.24179], [-73.49473, 18.2404], [-73.50095, 18.23442], [-73.50694, 18.23257], [-73.51382, 18.23519], [-73.51732, 18.23377], [-73.51965, 18.2362], [-73.52086, 18.23431], [-73.53131, 18.23292], [-73.53743, 18.252], [-73.54221, 18.25563], [-73.54257, 18.25886], [-73.54585, 18.2608], [-73.5523, 18.2591], [-73.55537, 18.26042], [-73.55768, 18.25683], [-73.56323, 18.25959], [-73.57177, 18.25536], [-73.57532, 18.24968], [-73.56904, 18.23993], [-73.56392, 18.23646], [-73.55886, 18.2275], [-73.55968, 18.22336], [-73.56511, 18.22106], [-73.56722, 18.21606], [-73.57263, 18.21544], [-73.57883, 18.21743], [-73.58096, 18.22865], [-73.58751, 18.23311], [-73.58478, 18.23487], [-73.58585, 18.2359], [-73.5891, 18.23299], [-73.58499, 18.22382], [-73.58673, 18.22018], [-73.60168, 18.21227], [-73.61055, 18.21285], [-73.61962, 18.21691], [-73.61984, 18.21958], [-73.6151, 18.22304], [-73.61598, 18.22904], [-73.61374, 18.22992], [-73.61639, 18.23176], [-73.61348, 18.23323], [-73.6136, 18.23573], [-73.61109, 18.2357], [-73.61266, 18.23724], [-73.60818, 18.23608], [-73.60847, 18.24168], [-73.60332, 18.24026], [-73.60339, 18.24189], [-73.59992, 18.24326], [-73.60285, 18.24747], [-73.60017, 18.24945], [-73.60957, 18.25673], [-73.61307, 18.25143], [-73.617, 18.25365], [-73.62004, 18.25301], [-73.61989, 18.25057], [-73.62254, 18.25117], [-73.62185, 18.24888], [-73.62625, 18.24787], [-73.63203, 18.2507], [-73.63305, 18.24946], [-73.63259, 18.2452], [-73.63492, 18.24327], [-73.63309, 18.24182], [-73.63427, 18.23735], [-73.63157, 18.23622], [-73.63397, 18.23386], [-73.63244, 18.22687], [-73.6332, 18.2235], [-73.63871, 18.22146], [-73.63996, 18.21725], [-73.6454, 18.21429], [-73.65148, 18.21588], [-73.65746, 18.21059], [-73.6636, 18.21106], [-73.66374, 18.21706], [-73.66059, 18.21818], [-73.66191, 18.22261], [-73.65934, 18.22202], [-73.66092, 18.22796], [-73.65708, 18.22421], [-73.65844, 18.22806], [-73.65046, 18.22755], [-73.64803, 18.23912], [-73.645, 18.24003], [-73.64115, 18.24542], [-73.64745, 18.25376], [-73.64996, 18.25248], [-73.65446, 18.23913], [-73.65804, 18.23861], [-73.65951, 18.23731], [-73.657, 18.23717], [-73.65832, 18.2359], [-73.66749, 18.23327], [-73.67311, 18.22349], [-73.67743, 18.22735], [-73.67423, 18.23462], [-73.67746, 18.23809], [-73.69102, 18.23873], [-73.69677, 18.23634], [-73.69649, 18.23256], [-73.70053, 18.22817], [-73.70003, 18.22308], [-73.70276, 18.2207], [-73.69963, 18.21555], [-73.70169, 18.21259], [-73.71827, 18.2104], [-73.72114, 18.20865], [-73.72081, 18.20511], [-73.72284, 18.20236], [-73.72719, 18.20343], [-73.73109, 18.20177], [-73.73001, 18.19906], [-73.73445, 18.19811], [-73.73809, 18.19278], [-73.74794, 18.19079], [-73.75056, 18.18668], [-73.75862, 18.18121], [-73.76867, 18.18059], [-73.79264, 18.16771], [-73.80368, 18.15849], [-73.80831, 18.15863], [-73.81589, 18.15171], [-73.82008, 18.15134], [-73.82869, 18.14282], [-73.84335, 18.12268], [-73.84212, 18.11696], [-73.84396, 18.1089], [-73.84022, 18.10218], [-73.8367, 18.10076], [-73.83072, 18.0928], [-73.82052, 18.08759], [-73.81371, 18.08118], [-73.81359, 18.07902], [-73.8086, 18.07513], [-73.80937, 18.07102], [-73.80689, 18.06719], [-73.80149, 18.06573], [-73.80082, 18.06211], [-73.79237, 18.05552], [-73.78682, 18.05449], [-73.79105, 18.05882], [-73.78594, 18.05421], [-73.78569, 18.05234], [-73.78658, 18.0537], [-73.78834, 18.05183], [-73.78483, 18.05068], [-73.78288, 18.04333], [-73.79089, 18.03842], [-73.79029, 18.03447], [-73.78756, 18.03216], [-73.78853, 18.02921], [-73.79265, 18.02631], [-73.79708, 18.02776], [-73.79944, 18.02371], [-73.80202, 18.02652], [-73.80483, 18.0226], [-73.8167, 18.02239], [-73.82728, 18.02687], [-73.83032, 18.02503], [-73.84999, 18.0262], [-73.86528, 18.02494], [-73.86688, 18.02325], [-73.87632, 18.0223], [-73.89081, 18.02572], [-73.89387, 18.02902], [-73.90429, 18.03275], [-73.90284, 18.04347], [-73.91241, 18.05591], [-73.91307, 18.06112], [-73.91713, 18.06436], [-73.92079, 18.07394], [-73.91761, 18.07838], [-73.92001, 18.0818], [-73.92332, 18.08246], [-73.92212, 18.08485], [-73.92579, 18.08766], [-73.92674, 18.09103], [-73.9397, 18.09932], [-73.93895, 18.10264], [-73.94443, 18.11219], [-73.94224, 18.11468], [-73.94283, 18.11872], [-73.95, 18.13179], [-73.96094, 18.13342], [-73.97077, 18.14422], [-73.97482, 18.14622], [-73.98089, 18.15588], [-73.97901, 18.158], [-73.97963, 18.16367], [-74.00083, 18.16583], [-74.0052, 18.18119], [-74.01844, 18.18725], [-74.01977, 18.19192], [-74.0233, 18.19492], [-74.03332, 18.19649], [-74.0347, 18.19981], [-74.03942, 18.20139], [-74.04304, 18.20682], [-74.05221, 18.21023], [-74.05396, 18.21232], [-74.05349, 18.21826], [-74.06019, 18.22103], [-74.06225, 18.22682], [-74.08475, 18.23545], [-74.08824, 18.23963], [-74.08919, 18.24587], [-74.09211, 18.24803], [-74.10243, 18.24945], [-74.1096, 18.25266], [-74.11539, 18.25828], [-74.12416, 18.25844], [-74.1296, 18.26384], [-74.13904, 18.26413], [-74.14292, 18.26745], [-74.15512, 18.26853], [-74.16159, 18.2727], [-74.16675, 18.27303], [-74.16794, 18.28025], [-74.17272, 18.28179], [-74.17453, 18.28543], [-74.181, 18.28902], [-74.18887, 18.29687], [-74.20909, 18.29724], [-74.21836, 18.30086], [-74.22141, 18.30599], [-74.22981, 18.3111], [-74.24332, 18.31176], [-74.25159, 18.31021], [-74.25755, 18.31155], [-74.30069, 18.28774], [-74.31161, 18.28499], [-74.33022, 18.28772], [-74.35836, 18.29616], [-74.36966, 18.29644], [-74.37658, 18.30551], [-74.38398, 18.31134], [-74.3838, 18.31433], [-74.39651, 18.31569], [-74.40188, 18.31918], [-74.39731, 18.32551], [-74.40208, 18.33421], [-74.41244, 18.33822], [-74.43072, 18.34081], [-74.43886, 18.34442], [-74.43963, 18.3467], [-74.44493, 18.34726], [-74.44766, 18.34997], [-74.45053, 18.35669], [-74.44904, 18.35851], [-74.4411, 18.35702], [-74.43573, 18.36094], [-74.43675, 18.36627], [-74.43241, 18.3634], [-74.43235, 18.35891], [-74.43037, 18.35977], [-74.42309, 18.35716], [-74.41023, 18.36068], [-74.39971, 18.35757], [-74.38966, 18.36043], [-74.38787, 18.36286], [-74.38253, 18.36065], [-74.37032, 18.36024], [-74.3655, 18.36268], [-74.35577, 18.36019], [-74.34313, 18.3643], [-74.34006, 18.36195], [-74.33499, 18.36283], [-74.32918, 18.36097], [-74.32453, 18.36447], [-74.31764, 18.36423], [-74.30861, 18.36703], [-74.30218, 18.37216], [-74.29609, 18.37901], [-74.29474, 18.38549], [-74.29615, 18.39181], [-74.29392, 18.39474], [-74.27701, 18.38136], [-74.26507, 18.38137], [-74.26034, 18.37649], [-74.24968, 18.37483], [-74.2355, 18.37693], [-74.23047, 18.38004], [-74.22289, 18.38005], [-74.22081, 18.38348], [-74.22323, 18.38828], [-74.21746, 18.39202], [-74.21708, 18.40211], [-74.21499, 18.40396], [-74.20645, 18.39812], [-74.19639, 18.39779], [-74.18109, 18.39202], [-74.13177, 18.40105], [-74.12408, 18.39636], [-74.11823, 18.39684], [-74.10655, 18.4035], [-74.10085, 18.40275], [-74.08186, 18.40764], [-74.06098, 18.40341], [-74.04707, 18.38947], [-74.03554, 18.38748], [-74.03189, 18.38409], [-74.01558, 18.38194], [-74.00276, 18.38373], [-73.98379, 18.37376], [-73.97853, 18.37331], [-73.97771, 18.37131], [-73.97607, 18.37289], [-73.97357, 18.37054], [-73.96431, 18.3688], [-73.94278, 18.37051], [-73.93093, 18.36553], [-73.92609, 18.36651], [-73.92291, 18.36411], [-73.89664, 18.36289], [-73.8947, 18.36374], [-73.89294, 18.37537], [-73.89789, 18.37706], [-73.9062, 18.38924], [-73.90569, 18.39902], [-73.88611, 18.40601], [-73.87864, 18.40739], [-73.87513, 18.40557], [-73.8684, 18.40717], [-73.84288, 18.40677], [-73.83542, 18.41034], [-73.8213, 18.4129], [-73.78562, 18.42407], [-73.78002, 18.42395], [-73.771, 18.41768], [-73.75916, 18.4235], [-73.74349, 18.42059], [-73.73779, 18.41599], [-73.72146, 18.41473], [-73.70695, 18.42111], [-73.70234, 18.42007], [-73.68197, 18.40009], [-73.67669, 18.39799], [-73.67156, 18.40291], [-73.67203, 18.43074], [-73.66993, 18.43019], [-73.66816, 18.43334], [-73.6534, 18.42584], [-73.64797, 18.42983], [-73.64357, 18.43021], [-73.63889, 18.42496], [-73.63154, 18.42201], [-73.6261, 18.42567], [-73.60965, 18.42713], [-73.60166, 18.42044], [-73.59154, 18.41885], [-73.58521, 18.4209], [-73.57799, 18.42053], [-73.5789, 18.4072], [-73.57388, 18.40119], [-73.56224, 18.40142], [-73.55945, 18.39943], [-73.55897, 18.39124], [-73.55262, 18.39049], [-73.54865, 18.38751], [-73.54634, 18.3893], [-73.54384, 18.38625], [-73.53863, 18.38462], [-73.54178, 18.37365], [-73.543, 18.37583], [-73.5462, 18.37542], [-73.55493, 18.36997], [-73.55726, 18.35836], [-73.5563, 18.34982], [-73.56435, 18.34655], [-73.56436, 18.34447], [-73.56148, 18.34733], [-73.55459, 18.33613], [-73.50448, 18.3365], [-73.49322, 18.3381], [-73.48216, 18.34228], [-73.47183, 18.34067], [-73.47041, 18.33762], [-73.45879, 18.33787], [-73.42923, 18.34451], [-73.41844, 18.34154], [-73.41227, 18.34202], [-73.40453, 18.34755], [-73.40114, 18.346], [-73.38586, 18.3471], [-73.36299, 18.34525], [-73.35522, 18.34251], [-73.34837, 18.34861], [-73.33643, 18.3694], [-73.33184, 18.36882], [-73.3306, 18.37078], [-73.32754, 18.36716], [-73.32482, 18.36776], [-73.32223, 18.36393], [-73.31871, 18.36273], [-73.3014, 18.36662], [-73.29944, 18.36864], [-73.29631, 18.36553], [-73.29403, 18.3658], [-73.29508, 18.36775], [-73.28687, 18.36771], [-73.27706, 18.36117], [-73.27001, 18.35876], [-73.26683, 18.35985], [-73.2627, 18.35388], [-73.25918, 18.35284], [-73.24723, 18.35423], [-73.22817, 18.3523], [-73.21767, 18.36253], [-73.20459, 18.36218], [-73.19513, 18.36406], [-73.18682, 18.36286], [-73.17941, 18.35655], [-73.17322, 18.35613], [-73.1645, 18.35056], [-73.15658, 18.3502], [-73.14163, 18.36474], [-73.13385, 18.36382], [-73.12519, 18.35886], [-73.11859, 18.36297], [-73.11466, 18.36052], [-73.11046, 18.36185], [-73.10045, 18.35305], [-73.09679, 18.34498], [-73.08677, 18.33893], [-73.08581, 18.33642], [-73.08054, 18.33471], [-73.08001, 18.3294], [-73.07236, 18.32727], [-73.07346, 18.32986], [-73.07068, 18.33102], [-73.06959, 18.32715], [-73.07201, 18.3228], [-73.06831, 18.32292], [-73.06698, 18.31564], [-73.0644, 18.3146], [-73.05937, 18.30303], [-73.05713, 18.30332], [-73.05588, 18.3006], [-73.0523, 18.30286], [-73.04993, 18.29966], [-73.04693, 18.30246], [-73.04617, 18.30071], [-73.04222, 18.30035], [-73.0468, 18.29675], [-73.04381, 18.29437], [-73.05236, 18.28699], [-73.04839, 18.28007], [-73.04235, 18.27717], [-73.0408, 18.2717], [-73.04299, 18.27067], [-73.03769, 18.26953], [-73.03981, 18.26619], [-73.03866, 18.26268], [-73.04165, 18.25968], [-73.03591, 18.25943], [-73.03781, 18.25652], [-73.033, 18.25475], [-73.03299, 18.25116], [-73.02992, 18.25114], [-73.02905, 18.24629], [-73.03139, 18.24187], [-73.03, 18.23974], [-73.01669, 18.23665], [-73.02058, 18.23283], [-73.01827, 18.23043], [-73.02282, 18.22519], [-73.02008, 18.2245], [-73.01478, 18.22778], [-73.0141, 18.2256], [-73.01674, 18.22418], [-73.01585, 18.22146], [-73.00938, 18.22369], [-73.00992, 18.21996], [-73.0072, 18.21848], [-73.00796, 18.2122], [-73.01047, 18.2088], [-73.00116, 18.2075]]]]}}, {"type": "Feature", "properties": {"type": "ville", "nom": "Jérémie"}, "geometry": {"type": "Point", "coordinates": [-74.1167, 18.65]}}, {"type": "Feature", "properties": {"type": "ville", "nom": "Les Cayes"}, "geometry": {"type": "Point", "coordinates": [-73.7469, 18.1937]}}]}