{"type": "FeatureCollection", "features": [{"type": "Feature", "properties": {"nom": "Haïti — terre émergée", "source": "CNIGS / OCHA 2018, simplifié"}, "geometry": {"type": "MultiPolygon", "coordinates": [[[[-73.57132, 18.06943], [-73.57613, 18.06108], [-73.58554, 18.05624], [-73.59264, 18.05801], [-73.60317, 18.05613], [-73.65081, 18.0609], [-73.6584, 18.05801], [-73.67019, 18.06071], [-73.67471, 18.0597], [-73.6764, 18.06108], [-73.67621, 18.06585], [-73.68759, 18.07765], [-73.6873, 18.0831], [-73.70545, 18.09273], [-73.70188, 18.0952], [-73.70781, 18.1007], [-73.70821, 18.10481], [-73.70536, 18.11001], [-73.69964, 18.10916], [-73.69659, 18.10242], [-73.69156, 18.10307], [-73.694, 18.10432], [-73.6919, 18.1075], [-73.6854, 18.10561], [-73.68491, 18.10413], [-73.68735, 18.10313], [-73.68287, 18.09972], [-73.68382, 18.09831], [-73.68086, 18.09948], [-73.68255, 18.1009], [-73.68037, 18.10365], [-73.67649, 18.09627], [-73.6716, 18.09959], [-73.66164, 18.08898], [-73.65138, 18.08492], [-73.6393, 18.08291], [-73.62242, 18.08939], [-73.61067, 18.09899], [-73.60783, 18.09807], [-73.60636, 18.10014], [-73.60285, 18.10041], [-73.58264, 18.08728], [-73.57132, 18.06943]]], [[[-73.69868, 18.6187], [-73.70124, 18.60803], [-73.70822, 18.59964], [-73.73271, 18.58427], [-73.74348, 18.5818], [-73.74758, 18.58504], [-73.75497, 18.5845], [-73.75462, 18.58647], [-73.76141, 18.59017], [-73.7612, 18.59302], [-73.77054, 18.5942], [-73.77319, 18.5913], [-73.77563, 18.59504], [-73.79198, 18.59785], [-73.79676, 18.60324], [-73.79522, 18.60484], [-73.7966, 18.62084], [-73.79375, 18.62624], [-73.78767, 18.6283], [-73.76876, 18.64202], [-73.75921, 18.6444], [-73.74479, 18.64271], [-73.74206, 18.63928], [-73.72579, 18.63302], [-73.7109, 18.63074], [-73.70233, 18.6266], [-73.69868, 18.6187]]], [[[-71.62215, 19.20615], [-71.62416, 19.20622], [-71.62486, 19.20297], [-71.62766, 19.20615], [-71.63143, 19.20602], [-71.63836, 19.2012], [-71.63724, 19.20062], [-71.63924, 19.19704], [-71.63741, 19.19437], [-71.63964, 19.19302], [-71.63752, 19.19217], [-71.6371, 19.18948], [-71.63059, 19.18955], [-71.6299, 19.18696], [-71.62692, 19.18635], [-71.62765, 19.18188], [-71.63542, 19.18334], [-71.63798, 19.17852], [-71.64447, 19.18019], [-71.64387, 19.17755], [-71.64731, 19.17672], [-71.64003, 19.17497], [-71.63375, 19.16896], [-71.63651, 19.16886], [-71.6374, 19.1664], [-71.64637, 19.16872], [-71.64493, 19.16586], [-71.64769, 19.16405], [-71.64513, 19.16367], [-71.64562, 19.16155], [-71.64385, 19.1614], [-71.6424, 19.15703], [-71.64585, 19.1571], [-71.64352, 19.15423], [-71.6468, 19.15268], [-71.64045, 19.14694], [-71.64874, 19.14503], [-71.64993, 19.14307], [-71.6569, 19.14367], [-71.65282, 19.13892], [-71.64608, 19.13567], [-71.65432, 19.1156], [-71.65575, 19.11742], [-71.66314, 19.11305], [-71.67059, 19.1175], [-71.67299, 19.1129], [-71.67675, 19.11471], [-71.67707, 19.1169], [-71.68259, 19.1172], [-71.67927, 19.10954], [-71.68315, 19.10852], [-71.68216, 19.10752], [-71.68493, 19.10305], [-71.69699, 19.10872], [-71.70262, 19.10669], [-71.70717, 19.10016], [-71.70455, 19.09708], [-71.6994, 19.09574], [-71.69731, 19.08718], [-71.70228, 19.08484], [-71.70972, 19.0856], [-71.71288, 19.08224], [-71.71227, 19.07834], [-71.70364, 19.07624], [-71.70186, 19.07325], [-71.71015, 19.06732], [-71.71123, 19.07073], [-71.71637, 19.07123], [-71.72102, 19.06614], [-71.72094, 19.0644], [-71.71647, 19.06318], [-71.71668, 19.06013], [-71.71847, 19.05867], [-71.72069, 19.05989], [-71.72336, 19.0537], [-71.73251, 19.05006], [-71.73779, 19.04999], [-71.73764, 19.04675], [-71.74053, 19.0434], [-71.74676, 19.0472], [-71.75228, 19.04622], [-71.75476, 19.04132], [-71.76388, 19.03476], [-71.76035, 19.03], [-71.76114, 19.02743], [-71.76475, 19.0263], [-71.76803, 19.03189], [-71.77092, 19.03181], [-71.78274, 19.01755], [-71.78138, 19.01596], [-71.77779, 19.01634], [-71.77586, 19.01302], [-71.78137, 19.01083], [-71.78507, 19.01234], [-71.79098, 19.00797], [-71.79137, 19.00095], [-71.78665, 18.99718], [-71.78909, 18.99328], [-71.7984, 18.99619], [-71.79625, 18.99974], [-71.79913, 19.00518], [-71.80586, 19.00291], [-71.80465, 18.99936], [-71.80617, 18.99838], [-71.81441, 18.99612], [-71.81921, 18.99695], [-71.82617, 18.99355], [-71.82906, 18.99559], [-71.83059, 19.00442], [-71.83346, 19.00592], [-71.83498, 19.00086], [-71.84171, 19.00019], [-71.84402, 18.99136], [-71.85234, 18.99302], [-71.85129, 18.98721], [-71.856, 18.98291], [-71.85687, 18.97725], [-71.8623, 18.97773], [-71.86304, 18.98318], [-71.86817, 18.98193], [-71.86875, 18.97454], [-71.87595, 18.97204], [-71.87647, 18.96839], [-71.87412, 18.96533], [-71.87484, 18.95826], [-71.87924, 18.95683], [-71.88548, 18.95961], [-71.88309, 18.94267], [-71.87973, 18.94184], [-71.87508, 18.949], [-71.86869, 18.94621], [-71.86108, 18.94772], [-71.86284, 18.95525], [-71.86043, 18.95992], [-71.861, 18.96369], [-71.85899, 18.96346], [-71.85436, 18.95457], [-71.84892, 18.96067], [-71.84987, 18.96301], [-71.84852, 18.96354], [-71.8462, 18.96263], [-71.84548, 18.95759], [-71.83988, 18.95842], [-71.84419, 18.96331], [-71.83707, 18.97039], [-71.83547, 18.97001], [-71.83316, 18.96286], [-71.82707, 18.96843], [-71.82291, 18.96941], [-71.82219, 18.96753], [-71.82612, 18.96398], [-71.8182, 18.96278], [-71.81436, 18.96481], [-71.81195, 18.95971], [-71.80476, 18.95909], [-71.80229, 18.95442], [-71.79693, 18.95698], [-71.79484, 18.95269], [-71.79084, 18.95803], [-71.78188, 18.95487], [-71.78291, 18.94835], [-71.76818, 18.90697], [-71.76034, 18.90592], [-71.73916, 18.89145], [-71.73662, 18.88519], [-71.73751, 18.87797], [-71.72662, 18.87696], [-71.72303, 18.88082], [-71.72215, 18.87871], [-71.72519, 18.87555], [-71.72659, 18.85494], [-71.72555, 18.83941], [-71.72083, 18.83284], [-71.72204, 18.80434], [-71.73798, 18.72229], [-71.78382, 18.7062], [-71.78588, 18.69207], [-71.78891, 18.68957], [-71.79403, 18.68926], [-71.79771, 18.69189], [-71.80422, 18.68539], [-71.80164, 18.68082], [-71.80301, 18.66993], [-71.80957, 18.66143], [-71.80715, 18.63545], [-71.81216, 18.63418], [-71.81538, 18.63071], [-71.82759, 18.63335], [-71.83619, 18.62972], [-71.84436, 18.62946], [-71.85232, 18.63586], [-71.86857, 18.63766], [-71.8734, 18.62801], [-71.88056, 18.62721], [-71.88427, 18.63662], [-71.90218, 18.64763], [-71.9083, 18.64912], [-71.91336, 18.64867], [-71.92153, 18.63728], [-71.92572, 18.63489], [-71.94115, 18.64402], [-71.9446, 18.64804], [-71.95321, 18.65207], [-71.95531, 18.6508], [-71.96245, 18.6536], [-71.96639, 18.65676], [-71.97568, 18.64771], [-71.98239, 18.63633], [-71.99783, 18.6312], [-72.00086, 18.62766], [-72.00387, 18.62809], [-72.00825, 18.62511], [-72.00042, 18.61759], [-71.98634, 18.619], [-71.98193, 18.61137], [-71.97558, 18.60546], [-71.96752, 18.60536], [-71.96515, 18.60352], [-71.95515, 18.57918], [-71.88083, 18.50382], [-71.88076, 18.49033], [-71.91374, 18.48536], [-71.90457, 18.45728], [-71.87624, 18.44601], [-71.86565, 18.43863], [-71.84405, 18.42934], [-71.83679, 18.41762], [-71.82984, 18.39896], [-71.81733, 18.39795], [-71.80336, 18.39252], [-71.80566, 18.38966], [-71.79535, 18.37891], [-71.69526, 18.34072], [-71.75741, 18.23987], [-71.75885, 18.23552], [-71.75767, 18.22692], [-71.76169, 18.22595], [-71.76336, 18.22153], [-71.76909, 18.21985], [-71.76985, 18.21227], [-71.77441, 18.20407], [-71.77227, 18.19791], [-71.77838, 18.19323], [-71.78143, 18.19313], [-71.78653, 18.18636], [-71.78752, 18.17706], [-71.78316, 18.17208], [-71.78329, 18.16882], [-71.77773, 18.16602], [-71.76632, 18.16798], [-71.76883, 18.1617], [-71.76484, 18.1593], [-71.76552, 18.15716], [-71.76252, 18.15579], [-71.76134, 18.15213], [-71.75871, 18.153], [-71.75749, 18.14887], [-71.75914, 18.14645], [-71.75791, 18.14508], [-71.75731, 18.14737], [-71.7541, 18.1463], [-71.75467, 18.14195], [-71.75212, 18.14322], [-71.74986, 18.14867], [-71.74731, 18.14773], [-71.74665, 18.14084], [-71.74885, 18.14198], [-71.75198, 18.13878], [-71.74569, 18.13729], [-71.7465, 18.13474], [-71.74384, 18.1317], [-71.74796, 18.12977], [-71.74539, 18.12675], [-71.74573, 18.12532], [-71.74842, 18.12579], [-71.74596, 18.12236], [-71.74757, 18.12074], [-71.74776, 18.11424], [-71.75031, 18.11139], [-71.7468, 18.1046], [-71.7467, 18.10039], [-71.74508, 18.09875], [-71.73922, 18.10046], [-71.73629, 18.09589], [-71.74056, 18.09068], [-71.73767, 18.08893], [-71.73573, 18.08118], [-71.7357, 18.07885], [-71.73931, 18.07732], [-71.7382, 18.0694], [-71.74095, 18.06582], [-71.74427, 18.06496], [-71.74514, 18.0523], [-71.75617, 18.04211], [-71.75942, 18.0317], [-71.76768, 18.04221], [-71.7845, 18.05107], [-71.79326, 18.05976], [-71.81314, 18.07414], [-71.81781, 18.07947], [-71.81461, 18.08606], [-71.81813, 18.09304], [-71.81793, 18.09646], [-71.84237, 18.1186], [-71.8497, 18.12146], [-71.86307, 18.14054], [-71.87323, 18.14809], [-71.8799, 18.1493], [-71.88449, 18.15617], [-71.89325, 18.15789], [-71.89812, 18.16572], [-71.90192, 18.16825], [-71.91168, 18.17027], [-71.91241, 18.17625], [-71.92084, 18.18566], [-71.92714, 18.18955], [-71.93272, 18.18979], [-71.94058, 18.19313], [-71.97446, 18.19821], [-71.98543, 18.20202], [-71.99007, 18.20526], [-71.99343, 18.21103], [-72.00024, 18.21401], [-72.00285, 18.21358], [-72.0046, 18.20947], [-72.00978, 18.20554], [-72.0341, 18.2172], [-72.03364, 18.21933], [-72.03801, 18.22454], [-72.04002, 18.23164], [-72.04851, 18.23418], [-72.05176, 18.23732], [-72.06417, 18.23693], [-72.0665, 18.23483], [-72.08378, 18.23893], [-72.08851, 18.23416], [-72.09869, 18.23598], [-72.12577, 18.22908], [-72.13312, 18.23246], [-72.14599, 18.23013], [-72.15948, 18.23173], [-72.19809, 18.22168], [-72.21343, 18.22254], [-72.21562, 18.22102], [-72.2279, 18.22377], [-72.2338, 18.22204], [-72.23875, 18.2243], [-72.24112, 18.22322], [-72.24571, 18.22768], [-72.26596, 18.22683], [-72.27486, 18.22848], [-72.2818, 18.22605], [-72.28616, 18.22734], [-72.29907, 18.22219], [-72.30621, 18.22372], [-72.31643, 18.2312], [-72.32682, 18.23026], [-72.327, 18.23182], [-72.33773, 18.2344], [-72.34546, 18.23119], [-72.35023, 18.23437], [-72.35731, 18.23174], [-72.36015, 18.23436], [-72.36771, 18.23273], [-72.37155, 18.23492], [-72.42312, 18.22487], [-72.43183, 18.22718], [-72.44234, 18.22665], [-72.44784, 18.22358], [-72.45891, 18.22153], [-72.45961, 18.22364], [-72.46458, 18.22266], [-72.46822, 18.22495], [-72.46891, 18.22283], [-72.47836, 18.21944], [-72.48929, 18.22452], [-72.49434, 18.22018], [-72.51418, 18.21437], [-72.51952, 18.21473], [-72.52358, 18.22182], [-72.52525, 18.22101], [-72.52709, 18.22478], [-72.53403, 18.23054], [-72.53635, 18.23242], [-72.54075, 18.23232], [-72.54946, 18.23102], [-72.5581, 18.22227], [-72.55205, 18.20778], [-72.55388, 18.1994], [-72.55268, 18.19712], [-72.54785, 18.19659], [-72.5465, 18.19312], [-72.54147, 18.19008], [-72.54374, 18.17636], [-72.55324, 18.17224], [-72.56811, 18.17152], [-72.57119, 18.17575], [-72.57866, 18.17449], [-72.58319, 18.18003], [-72.58904, 18.18091], [-72.59056, 18.17825], [-72.59417, 18.17801], [-72.5997, 18.17965], [-72.60328, 18.1834], [-72.619, 18.18346], [-72.62322, 18.18841], [-72.62956, 18.18761], [-72.63163, 18.19], [-72.63964, 18.19143], [-72.64793, 18.18671], [-72.65503, 18.18749], [-72.65551, 18.18532], [-72.66155, 18.18391], [-72.67338, 18.18705], [-72.69567, 18.1793], [-72.6982, 18.1821], [-72.70225, 18.18198], [-72.71305, 18.17497], [-72.71975, 18.175], [-72.73272, 18.17963], [-72.7384, 18.17811], [-72.74192, 18.17899], [-72.74267, 18.18156], [-72.75025, 18.18391], [-72.75735, 18.17852], [-72.76091, 18.1706], [-72.75287, 18.16239], [-72.74843, 18.16043], [-72.74726, 18.15769], [-72.74916, 18.15441], [-72.75743, 18.15453], [-72.77961, 18.16027], [-72.78304, 18.1589], [-72.78254, 18.15037], [-72.79034, 18.14582], [-72.80589, 18.14667], [-72.81577, 18.14189], [-72.8218, 18.14199], [-72.82332, 18.14447], [-72.83607, 18.14961], [-72.84587, 18.15101], [-72.84827, 18.15083], [-72.84946, 18.1463], [-72.85405, 18.14379], [-72.85938, 18.14389], [-72.86208, 18.14593], [-72.86443, 18.14482], [-72.87592, 18.1502], [-72.87717, 18.14845], [-72.88553, 18.14894], [-72.88619, 18.15119], [-72.89434, 18.15113], [-72.90203, 18.15492], [-72.90253, 18.15755], [-72.90671, 18.15636], [-72.90795, 18.15941], [-72.90909, 18.15783], [-72.92122, 18.16171], [-72.92965, 18.16507], [-72.93156, 18.1677], [-72.93289, 18.16482], [-72.93563, 18.16652], [-72.94595, 18.1659], [-72.94717, 18.16781], [-72.96254, 18.16748], [-72.96596, 18.17048], [-72.9956, 18.17686], [-73.0009, 18.18023], [-73.00219, 18.18498], [-73.00795, 18.18695], [-73.0231, 18.18168], [-73.0556, 18.18254], [-73.06676, 18.18716], [-73.08363, 18.18567], [-73.10755, 18.18906], [-73.11164, 18.19145], [-73.14065, 18.19696], [-73.15212, 18.20357], [-73.16453, 18.206], [-73.17192, 18.21137], [-73.17816, 18.20914], [-73.18575, 18.21128], [-73.20712, 18.21013], [-73.21143, 18.2133], [-73.22299, 18.21125], [-73.23236, 18.21306], [-73.23607, 18.21187], [-73.24145, 18.21652], [-73.26662, 18.21522], [-73.27048, 18.21747], [-73.26947, 18.22288], [-73.27186, 18.22836], [-73.27829, 18.23211], [-73.29349, 18.23264], [-73.30852, 18.23029], [-73.32168, 18.22361], [-73.32891, 18.22326], [-73.33169, 18.22081], [-73.34121, 18.22162], [-73.34333, 18.21933], [-73.34649, 18.22114], [-73.34787, 18.22015], [-73.34871, 18.22412], [-73.35474, 18.22431], [-73.3583, 18.21681], [-73.36241, 18.21601], [-73.36454, 18.21854], [-73.37001, 18.21752], [-73.37047, 18.2233], [-73.36579, 18.23829], [-73.3617, 18.24181], [-73.35739, 18.24185], [-73.35656, 18.24821], [-73.35185, 18.25024], [-73.35077, 18.2531], [-73.35332, 18.25174], [-73.35228, 18.25452], [-73.35561, 18.25672], [-73.3667, 18.25877], [-73.36801, 18.26256], [-73.37054, 18.26254], [-73.36964, 18.26552], [-73.37148, 18.26442], [-73.37474, 18.26833], [-73.37805, 18.26784], [-73.38303, 18.27311], [-73.38194, 18.26859], [-73.38345, 18.26828], [-73.38674, 18.27143], [-73.39007, 18.28043], [-73.39244, 18.27902], [-73.38988, 18.26492], [-73.39072, 18.26105], [-73.39319, 18.25952], [-73.3938, 18.26337], [-73.39148, 18.26596], [-73.39239, 18.27013], [-73.39636, 18.2688], [-73.39311, 18.26719], [-73.39668, 18.26699], [-73.39772, 18.26385], [-73.399, 18.26773], [-73.39963, 18.26399], [-73.40269, 18.26508], [-73.40215, 18.26683], [-73.4047, 18.26586], [-73.40317, 18.26069], [-73.4058, 18.25983], [-73.40712, 18.26238], [-73.41, 18.26118], [-73.40904, 18.25615], [-73.40393, 18.25658], [-73.40725, 18.24922], [-73.40945, 18.24977], [-73.40918, 18.25263], [-73.4204, 18.2558], [-73.42823, 18.25572], [-73.43075, 18.25394], [-73.43032, 18.26231], [-73.4347, 18.26527], [-73.43886, 18.26303], [-73.44278, 18.2654], [-73.44448, 18.2633], [-73.44356, 18.25878], [-73.44829, 18.26652], [-73.45057, 18.26688], [-73.45336, 18.26625], [-73.45486, 18.2624], [-73.4516, 18.25517], [-73.45903, 18.26174], [-73.47527, 18.25734], [-73.47727, 18.25513], [-73.47494, 18.25], [-73.47837, 18.25011], [-73.47875, 18.25561], [-73.48157, 18.25722], [-73.48512, 18.2547], [-73.492, 18.25611], [-73.49347, 18.25183], [-73.50079, 18.24655], [-73.50786, 18.2451], [-73.50278, 18.24179], [-73.49473, 18.2404], [-73.50095, 18.23442], [-73.50694, 18.23257], [-73.51382, 18.23519], [-73.51732, 18.23377], [-73.51965, 18.2362], [-73.52086, 18.23431], [-73.53131, 18.23292], [-73.53743, 18.252], [-73.54221, 18.25563], [-73.54257, 18.25886], [-73.54585, 18.2608], [-73.5523, 18.2591], [-73.55537, 18.26042], [-73.55768, 18.25683], [-73.56323, 18.25959], [-73.57177, 18.25536], [-73.57532, 18.24968], [-73.56904, 18.23993], [-73.56392, 18.23646], [-73.55886, 18.2275], [-73.55968, 18.22336], [-73.56511, 18.22106], [-73.56722, 18.21606], [-73.57263, 18.21544], [-73.57883, 18.21743], [-73.58096, 18.22865], [-73.58751, 18.23311], [-73.58478, 18.23487], [-73.58585, 18.2359], [-73.5891, 18.23299], [-73.58499, 18.22382], [-73.58673, 18.22018], [-73.5904, 18.21944], [-73.59544, 18.21459], [-73.59889, 18.21464], [-73.60168, 18.21227], [-73.61055, 18.21285], [-73.61962, 18.21691], [-73.61984, 18.21958], [-73.6151, 18.22304], [-73.61598, 18.22904], [-73.61374, 18.22992], [-73.61639, 18.23176], [-73.61348, 18.23323], [-73.6136, 18.23573], [-73.61109, 18.2357], [-73.61266, 18.23724], [-73.60818, 18.23608], [-73.60847, 18.24168], [-73.60332, 18.24026], [-73.60339, 18.24189], [-73.59992, 18.24326], [-73.60285, 18.24747], [-73.60017, 18.24945], [-73.60957, 18.25673], [-73.61307, 18.25143], [-73.617, 18.25365], [-73.62004, 18.25301], [-73.61989, 18.25057], [-73.62254, 18.25117], [-73.62185, 18.24888], [-73.62625, 18.24787], [-73.63203, 18.2507], [-73.63259, 18.2452], [-73.63492, 18.24327], [-73.63309, 18.24182], [-73.63427, 18.23735], [-73.63149, 18.2355], [-73.63397, 18.23386], [-73.6332, 18.2235], [-73.63871, 18.22146], [-73.63996, 18.21725], [-73.6454, 18.21429], [-73.65148, 18.21588], [-73.65746, 18.21059], [-73.6636, 18.21106], [-73.66413, 18.21568], [-73.66059, 18.21818], [-73.66191, 18.22261], [-73.65934, 18.22202], [-73.66092, 18.22796], [-73.65708, 18.22421], [-73.65844, 18.22806], [-73.65046, 18.22755], [-73.64803, 18.23912], [-73.645, 18.24003], [-73.64115, 18.24542], [-73.64654, 18.25369], [-73.64996, 18.25248], [-73.65446, 18.23913], [-73.65804, 18.23861], [-73.65951, 18.23731], [-73.657, 18.23717], [-73.65832, 18.2359], [-73.66749, 18.23327], [-73.67311, 18.22349], [-73.67743, 18.22735], [-73.67423, 18.23462], [-73.67746, 18.23809], [-73.69102, 18.23873], [-73.69677, 18.23634], [-73.69649, 18.23256], [-73.70053, 18.22817], [-73.70003, 18.22308], [-73.70276, 18.2207], [-73.69963, 18.21555], [-73.70169, 18.21259], [-73.71827, 18.2104], [-73.72114, 18.20865], [-73.72081, 18.20511], [-73.72284, 18.20236], [-73.72719, 18.20343], [-73.73109, 18.20177], [-73.73001, 18.19906], [-73.73445, 18.19811], [-73.73809, 18.19278], [-73.74794, 18.19079], [-73.75056, 18.18668], [-73.75862, 18.18121], [-73.76867, 18.18059], [-73.79264, 18.16771], [-73.80368, 18.15849], [-73.80831, 18.15863], [-73.81589, 18.15171], [-73.82008, 18.15134], [-73.82869, 18.14282], [-73.84335, 18.12268], [-73.84212, 18.11696], [-73.84396, 18.1089], [-73.84022, 18.10218], [-73.8367, 18.10076], [-73.83072, 18.0928], [-73.82052, 18.08759], [-73.81371, 18.08118], [-73.81359, 18.07902], [-73.8086, 18.07513], [-73.80937, 18.07102], [-73.80689, 18.06719], [-73.80149, 18.06573], [-73.80082, 18.06211], [-73.79237, 18.05552], [-73.78682, 18.05449], [-73.79105, 18.05882], [-73.78594, 18.05421], [-73.78569, 18.05234], [-73.78658, 18.0537], [-73.78834, 18.05183], [-73.78483, 18.05068], [-73.78288, 18.04333], [-73.79089, 18.03842], [-73.79029, 18.03447], [-73.78756, 18.03216], [-73.78853, 18.02921], [-73.79265, 18.02631], [-73.79708, 18.02776], [-73.79944, 18.02371], [-73.80202, 18.02652], [-73.80483, 18.0226], [-73.8167, 18.02239], [-73.82728, 18.02687], [-73.83032, 18.02503], [-73.84999, 18.0262], [-73.86528, 18.02494], [-73.86688, 18.02325], [-73.87632, 18.0223], [-73.89081, 18.02572], [-73.89387, 18.02902], [-73.90429, 18.03275], [-73.90284, 18.04347], [-73.91241, 18.05591], [-73.91307, 18.06112], [-73.91713, 18.06436], [-73.92079, 18.07394], [-73.91761, 18.07838], [-73.92001, 18.0818], [-73.92332, 18.08246], [-73.92212, 18.08485], [-73.92579, 18.08766], [-73.92674, 18.09103], [-73.9397, 18.09932], [-73.93895, 18.10264], [-73.94443, 18.11219], [-73.94224, 18.11468], [-73.94283, 18.11872], [-73.95, 18.13179], [-73.96094, 18.13342], [-73.97077, 18.14422], [-73.97482, 18.14622], [-73.98089, 18.15588], [-73.97901, 18.158], [-73.97963, 18.16367], [-74.00083, 18.16583], [-74.0052, 18.18119], [-74.01844, 18.18725], [-74.01977, 18.19192], [-74.0233, 18.19492], [-74.03332, 18.19649], [-74.0347, 18.19981], [-74.03942, 18.20139], [-74.04304, 18.20682], [-74.05221, 18.21023], [-74.05396, 18.21232], [-74.05349, 18.21826], [-74.06019, 18.22103], [-74.06225, 18.22682], [-74.08475, 18.23545], [-74.08824, 18.23963], [-74.08919, 18.24587], [-74.09211, 18.24803], [-74.10243, 18.24945], [-74.1096, 18.25266], [-74.11539, 18.25828], [-74.12416, 18.25844], [-74.1296, 18.26384], [-74.13904, 18.26413], [-74.14292, 18.26745], [-74.15512, 18.26853], [-74.16159, 18.2727], [-74.16675, 18.27303], [-74.16794, 18.28025], [-74.17272, 18.28179], [-74.17453, 18.28543], [-74.181, 18.28902], [-74.18887, 18.29687], [-74.20909, 18.29724], [-74.21836, 18.30086], [-74.22141, 18.30599], [-74.22981, 18.3111], [-74.24332, 18.31176], [-74.25159, 18.31021], [-74.25755, 18.31155], [-74.30069, 18.28774], [-74.31161, 18.28499], [-74.33022, 18.28772], [-74.35836, 18.29616], [-74.36966, 18.29644], [-74.37658, 18.30551], [-74.38398, 18.31134], [-74.3838, 18.31433], [-74.39651, 18.31569], [-74.40188, 18.31918], [-74.39731, 18.32551], [-74.40208, 18.33421], [-74.41244, 18.33822], [-74.43072, 18.34081], [-74.44766, 18.34997], [-74.45053, 18.35669], [-74.44663, 18.36997], [-74.45191, 18.37708], [-74.45224, 18.38285], [-74.45014, 18.38427], [-74.44827, 18.39121], [-74.44892, 18.39704], [-74.4526, 18.40311], [-74.46433, 18.41317], [-74.46919, 18.41526], [-74.47311, 18.41583], [-74.47543, 18.41397], [-74.4804, 18.41553], [-74.47608, 18.41619], [-74.47282, 18.41939], [-74.47489, 18.42197], [-74.47317, 18.424], [-74.47482, 18.42738], [-74.47896, 18.42722], [-74.48018, 18.429], [-74.47259, 18.43392], [-74.47375, 18.44022], [-74.47137, 18.44065], [-74.46956, 18.44379], [-74.47142, 18.44625], [-74.46935, 18.4469], [-74.47088, 18.44964], [-74.46821, 18.44961], [-74.46526, 18.45261], [-74.46514, 18.45879], [-74.45929, 18.46169], [-74.46167, 18.4651], [-74.45407, 18.4692], [-74.45246, 18.47349], [-74.45466, 18.47607], [-74.45277, 18.47998], [-74.45294, 18.48634], [-74.46286, 18.49079], [-74.45765, 18.49723], [-74.45948, 18.49904], [-74.45355, 18.50302], [-74.451, 18.50769], [-74.44216, 18.51571], [-74.44136, 18.51854], [-74.44283, 18.51957], [-74.44285, 18.52494], [-74.44467, 18.52566], [-74.44304, 18.52777], [-74.44483, 18.53235], [-74.44047, 18.53723], [-74.43564, 18.53787], [-74.43423, 18.54507], [-74.43625, 18.54886], [-74.43473, 18.55031], [-74.43188, 18.54949], [-74.43134, 18.55249], [-74.42576, 18.55779], [-74.41497, 18.58207], [-74.41634, 18.59439], [-74.42213, 18.59591], [-74.42744, 18.60047], [-74.42893, 18.60518], [-74.4247, 18.60796], [-74.4248, 18.61619], [-74.40974, 18.62371], [-74.40717, 18.62994], [-74.39939, 18.63014], [-74.39517, 18.6272], [-74.39505, 18.63222], [-74.38857, 18.63612], [-74.38973, 18.64103], [-74.38573, 18.64402], [-74.37637, 18.63587], [-74.36978, 18.63723], [-74.36755, 18.63594], [-74.36362, 18.64045], [-74.36031, 18.6394], [-74.35286, 18.64301], [-74.34915, 18.64842], [-74.34429, 18.64753], [-74.34372, 18.65134], [-74.3372, 18.64797], [-74.33001, 18.65536], [-74.31515, 18.65432], [-74.30935, 18.64963], [-74.30545, 18.65287], [-74.3075, 18.65944], [-74.29682, 18.66192], [-74.29106, 18.65988], [-74.28863, 18.65738], [-74.28793, 18.65247], [-74.27946, 18.64785], [-74.27627, 18.65008], [-74.27486, 18.65441], [-74.27031, 18.65553], [-74.26829, 18.66041], [-74.26358, 18.66403], [-74.26305, 18.66864], [-74.25973, 18.67042], [-74.25228, 18.67038], [-74.24703, 18.66517], [-74.24313, 18.67002], [-74.20432, 18.67561], [-74.1952, 18.67553], [-74.19286, 18.67256], [-74.16252, 18.6683], [-74.15579, 18.66646], [-74.14623, 18.65978], [-74.14039, 18.66371], [-74.13475, 18.66172], [-74.13015, 18.65893], [-74.12676, 18.65357], [-74.11983, 18.65431], [-74.11927, 18.65104], [-74.11407, 18.64989], [-74.10883, 18.64575], [-74.11167, 18.64564], [-74.11232, 18.64216], [-74.10845, 18.63604], [-74.08769, 18.62473], [-74.08297, 18.61831], [-74.06704, 18.61119], [-74.03408, 18.60273], [-74.00696, 18.60092], [-74.00444, 18.59925], [-73.9927, 18.60261], [-73.98542, 18.60279], [-73.98401, 18.60038], [-73.97911, 18.60187], [-73.97742, 18.59997], [-73.96997, 18.60191], [-73.96512, 18.59998], [-73.96274, 18.60162], [-73.95458, 18.5966], [-73.95066, 18.59649], [-73.94755, 18.59244], [-73.93999, 18.58822], [-73.93569, 18.58914], [-73.93393, 18.59369], [-73.92714, 18.59426], [-73.9242, 18.58999], [-73.91633, 18.59016], [-73.917, 18.58742], [-73.91474, 18.58757], [-73.91499, 18.58611], [-73.90913, 18.58786], [-73.91105, 18.58583], [-73.91476, 18.58577], [-73.91486, 18.58147], [-73.91874, 18.581], [-73.91695, 18.5782], [-73.91213, 18.57879], [-73.91286, 18.57466], [-73.90827, 18.57268], [-73.90601, 18.57739], [-73.90434, 18.57691], [-73.90478, 18.57415], [-73.90235, 18.57247], [-73.90247, 18.57074], [-73.90468, 18.57097], [-73.90317, 18.56641], [-73.90113, 18.56915], [-73.88758, 18.56797], [-73.88553, 18.57038], [-73.87658, 18.56975], [-73.87304, 18.57235], [-73.87244, 18.57014], [-73.86981, 18.56952], [-73.86533, 18.57191], [-73.85746, 18.56899], [-73.85545, 18.57264], [-73.85462, 18.57106], [-73.8525, 18.57262], [-73.85151, 18.56907], [-73.85299, 18.56692], [-73.85012, 18.56617], [-73.84711, 18.57225], [-73.84654, 18.56988], [-73.84177, 18.57208], [-73.84254, 18.57038], [-73.84018, 18.57016], [-73.83975, 18.56713], [-73.83615, 18.56912], [-73.83709, 18.56655], [-73.83365, 18.56668], [-73.83456, 18.56347], [-73.83223, 18.56537], [-73.83128, 18.56269], [-73.82699, 18.56283], [-73.82558, 18.5606], [-73.82201, 18.5628], [-73.82075, 18.55865], [-73.81837, 18.56081], [-73.81724, 18.55724], [-73.81411, 18.56108], [-73.81295, 18.55949], [-73.81484, 18.55651], [-73.81199, 18.55819], [-73.81179, 18.55636], [-73.81017, 18.55762], [-73.80639, 18.55588], [-73.80329, 18.55345], [-73.80374, 18.54951], [-73.80184, 18.55228], [-73.79669, 18.54953], [-73.79741, 18.54605], [-73.79355, 18.54836], [-73.79588, 18.54565], [-73.79088, 18.54575], [-73.79271, 18.54486], [-73.78873, 18.54008], [-73.79072, 18.53732], [-73.78989, 18.535], [-73.78842, 18.53855], [-73.78309, 18.53999], [-73.78156, 18.53854], [-73.78012, 18.54019], [-73.77938, 18.53572], [-73.77676, 18.5359], [-73.77808, 18.53929], [-73.77517, 18.54226], [-73.77608, 18.53921], [-73.77368, 18.54049], [-73.77308, 18.53848], [-73.77191, 18.54174], [-73.76499, 18.54411], [-73.76262, 18.5399], [-73.75804, 18.54488], [-73.75303, 18.54246], [-73.75185, 18.54548], [-73.74751, 18.54457], [-73.74213, 18.54784], [-73.7402, 18.54619], [-73.74003, 18.5478], [-73.73404, 18.55033], [-73.72112, 18.55178], [-73.71941, 18.5586], [-73.7339, 18.55737], [-73.73004, 18.56089], [-73.73173, 18.56271], [-73.72773, 18.56234], [-73.72866, 18.56472], [-73.72704, 18.56337], [-73.72575, 18.56487], [-73.72699, 18.56655], [-73.71947, 18.56481], [-73.71958, 18.56901], [-73.71734, 18.57039], [-73.71857, 18.57156], [-73.70269, 18.57705], [-73.68713, 18.57804], [-73.66962, 18.5736], [-73.65618, 18.57244], [-73.6349, 18.58188], [-73.61719, 18.58544], [-73.6026, 18.58547], [-73.57776, 18.58931], [-73.56737, 18.58722], [-73.56367, 18.58132], [-73.57747, 18.56137], [-73.58587, 18.55494], [-73.59224, 18.55265], [-73.60695, 18.55269], [-73.61314, 18.55588], [-73.61707, 18.55402], [-73.61882, 18.55648], [-73.63069, 18.55919], [-73.6398, 18.55911], [-73.64167, 18.55753], [-73.64404, 18.55837], [-73.64256, 18.55931], [-73.64356, 18.56043], [-73.64534, 18.55943], [-73.64347, 18.55636], [-73.64436, 18.55437], [-73.66612, 18.55312], [-73.6614, 18.55792], [-73.66171, 18.55987], [-73.66621, 18.55715], [-73.67498, 18.56468], [-73.68815, 18.5657], [-73.69123, 18.56473], [-73.69005, 18.56224], [-73.68027, 18.56021], [-73.68253, 18.5538], [-73.68569, 18.55447], [-73.6872, 18.55221], [-73.69252, 18.55372], [-73.69232, 18.55131], [-73.69626, 18.55049], [-73.69865, 18.55356], [-73.69992, 18.54965], [-73.70814, 18.54705], [-73.71046, 18.54402], [-73.7172, 18.54868], [-73.71664, 18.55128], [-73.7249, 18.54557], [-73.72502, 18.54289], [-73.72316, 18.54214], [-73.72099, 18.54345], [-73.72107, 18.54623], [-73.71788, 18.54198], [-73.71585, 18.54399], [-73.71575, 18.54219], [-73.71069, 18.54064], [-73.71185, 18.54312], [-73.7083, 18.54142], [-73.70024, 18.54349], [-73.69959, 18.54126], [-73.69636, 18.54518], [-73.69382, 18.54553], [-73.69449, 18.54064], [-73.69287, 18.53939], [-73.68911, 18.54213], [-73.68948, 18.54501], [-73.68432, 18.54502], [-73.68455, 18.53644], [-73.68169, 18.53808], [-73.6807, 18.54485], [-73.67773, 18.54492], [-73.67761, 18.54232], [-73.67683, 18.54355], [-73.67447, 18.54031], [-73.67002, 18.54238], [-73.66949, 18.54081], [-73.66603, 18.54248], [-73.66571, 18.54071], [-73.66351, 18.54119], [-73.66199, 18.53777], [-73.66312, 18.53519], [-73.66023, 18.53492], [-73.66004, 18.53287], [-73.66613, 18.52833], [-73.66431, 18.5245], [-73.66681, 18.52525], [-73.66991, 18.51751], [-73.67195, 18.51701], [-73.67063, 18.51336], [-73.67298, 18.5093], [-73.67261, 18.50747], [-73.66364, 18.50613], [-73.66515, 18.50505], [-73.66455, 18.50251], [-73.66176, 18.49912], [-73.64703, 18.50106], [-73.64733, 18.50239], [-73.63886, 18.50408], [-73.63633, 18.50643], [-73.63372, 18.5037], [-73.63025, 18.50466], [-73.62964, 18.50241], [-73.6258, 18.5016], [-73.62732, 18.50471], [-73.62315, 18.50409], [-73.6229, 18.49951], [-73.61815, 18.5026], [-73.61465, 18.50087], [-73.61142, 18.50322], [-73.61118, 18.50053], [-73.60794, 18.50361], [-73.608, 18.5012], [-73.59888, 18.50367], [-73.59772, 18.50087], [-73.59262, 18.50409], [-73.58772, 18.50148], [-73.58653, 18.5043], [-73.58338, 18.50547], [-73.57844, 18.50445], [-73.57912, 18.50956], [-73.57779, 18.5099], [-73.57687, 18.50663], [-73.57531, 18.50776], [-73.5757, 18.50549], [-73.57066, 18.50524], [-73.56751, 18.50918], [-73.56411, 18.50809], [-73.56403, 18.51297], [-73.56176, 18.51115], [-73.56278, 18.50902], [-73.55905, 18.50986], [-73.55491, 18.51337], [-73.55421, 18.5165], [-73.55001, 18.51729], [-73.54823, 18.52048], [-73.54323, 18.52234], [-73.5391, 18.51987], [-73.5363, 18.52117], [-73.53941, 18.52247], [-73.53891, 18.52403], [-73.53017, 18.52296], [-73.53189, 18.52068], [-73.52813, 18.51756], [-73.52566, 18.51895], [-73.52583, 18.52573], [-73.52052, 18.52924], [-73.51246, 18.52616], [-73.51212, 18.52869], [-73.50769, 18.52857], [-73.48226, 18.52583], [-73.47101, 18.52255], [-73.45745, 18.52869], [-73.42229, 18.52021], [-73.40681, 18.52052], [-73.39326, 18.51442], [-73.36444, 18.51095], [-73.34974, 18.50707], [-73.34739, 18.50328], [-73.34488, 18.50564], [-73.33087, 18.50335], [-73.31097, 18.4939], [-73.294, 18.48315], [-73.26963, 18.48365], [-73.23941, 18.47619], [-73.23538, 18.47813], [-73.23023, 18.47747], [-73.21271, 18.48086], [-73.20125, 18.48772], [-73.18867, 18.4897], [-73.16035, 18.48551], [-73.14738, 18.4795], [-73.13803, 18.47881], [-73.12522, 18.47494], [-73.12519, 18.46664], [-73.1219, 18.4701], [-73.12001, 18.46588], [-73.1247, 18.46247], [-73.12263, 18.46311], [-73.12295, 18.46118], [-73.12145, 18.4611], [-73.11944, 18.46241], [-73.11799, 18.46066], [-73.11784, 18.46317], [-73.11699, 18.46138], [-73.11393, 18.46211], [-73.11636, 18.45818], [-73.11056, 18.45327], [-73.11074, 18.45552], [-73.1061, 18.45644], [-73.1068, 18.45431], [-73.10373, 18.45166], [-73.10813, 18.45297], [-73.10858, 18.45121], [-73.10515, 18.44662], [-73.10396, 18.44783], [-73.09148, 18.44289], [-73.09026, 18.44696], [-73.08728, 18.44691], [-73.0848, 18.44949], [-73.0735, 18.44676], [-73.07066, 18.45361], [-73.0726, 18.45475], [-73.06978, 18.45806], [-73.06336, 18.45711], [-73.05668, 18.46125], [-73.05068, 18.46108], [-73.05206, 18.45862], [-73.05068, 18.46108], [-73.04292, 18.46195], [-73.04231, 18.4648], [-73.03822, 18.46511], [-73.03295, 18.46266], [-73.02703, 18.46524], [-73.00991, 18.46592], [-73.00179, 18.46389], [-72.98708, 18.46796], [-72.98142, 18.46497], [-72.96288, 18.46463], [-72.95455, 18.46088], [-72.93458, 18.4567], [-72.9314, 18.45805], [-72.91539, 18.45288], [-72.91156, 18.449], [-72.90265, 18.44922], [-72.89497, 18.44715], [-72.89308, 18.44279], [-72.89001, 18.44237], [-72.8927, 18.44112], [-72.8949, 18.44334], [-72.89603, 18.44174], [-72.90056, 18.4434], [-72.90275, 18.4411], [-72.89868, 18.43688], [-72.8993, 18.43288], [-72.89185, 18.42448], [-72.87527, 18.42555], [-72.8581, 18.44246], [-72.84918, 18.44485], [-72.81418, 18.44233], [-72.80101, 18.43692], [-72.79143, 18.43017], [-72.78618, 18.43051], [-72.78281, 18.43281], [-72.76158, 18.43346], [-72.75455, 18.42836], [-72.74916, 18.43], [-72.74, 18.42593], [-72.72782, 18.42625], [-72.7143, 18.43131], [-72.71124, 18.43435], [-72.70716, 18.43408], [-72.70496, 18.43757], [-72.69527, 18.43866], [-72.6796, 18.45212], [-72.67511, 18.45911], [-72.65321, 18.51404], [-72.65238, 18.52451], [-72.6451, 18.52919], [-72.62632, 18.55111], [-72.60483, 18.55976], [-72.59911, 18.55921], [-72.58126, 18.565], [-72.56994, 18.56247], [-72.56433, 18.56315], [-72.55967, 18.56028], [-72.55339, 18.56087], [-72.55247, 18.55295], [-72.54607, 18.54998], [-72.54092, 18.54431], [-72.52517, 18.54731], [-72.51765, 18.54543], [-72.51317, 18.54898], [-72.50017, 18.54476], [-72.49626, 18.54691], [-72.48057, 18.54501], [-72.47313, 18.54864], [-72.43038, 18.54181], [-72.41844, 18.5558], [-72.41568, 18.55332], [-72.40865, 18.55354], [-72.39815, 18.54823], [-72.39464, 18.54879], [-72.39592, 18.54699], [-72.38587, 18.5373], [-72.37558, 18.53242], [-72.36768, 18.53496], [-72.36391, 18.53301], [-72.36353, 18.53625], [-72.36082, 18.5339], [-72.35577, 18.54099], [-72.34922, 18.54418], [-72.35038, 18.54979], [-72.34768, 18.55562], [-72.3521, 18.55693], [-72.35203, 18.55834], [-72.3471, 18.56355], [-72.34739, 18.56502], [-72.35286, 18.56632], [-72.35097, 18.56982], [-72.34731, 18.57066], [-72.34524, 18.57497], [-72.34269, 18.57185], [-72.33887, 18.57465], [-72.34189, 18.58058], [-72.33977, 18.58351], [-72.3387, 18.593], [-72.34591, 18.59744], [-72.34672, 18.60222], [-72.34442, 18.60633], [-72.34879, 18.61414], [-72.3521, 18.61622], [-72.35024, 18.61864], [-72.35086, 18.62306], [-72.35909, 18.6287], [-72.35854, 18.63038], [-72.35389, 18.62722], [-72.34715, 18.62748], [-72.34277, 18.63325], [-72.33882, 18.64436], [-72.33123, 18.65314], [-72.31904, 18.65876], [-72.31699, 18.66514], [-72.32154, 18.67916], [-72.32452, 18.68166], [-72.33478, 18.68274], [-72.35168, 18.68958], [-72.35183, 18.68719], [-72.35317, 18.69008], [-72.35758, 18.69064], [-72.36847, 18.69825], [-72.37925, 18.70113], [-72.37912, 18.70381], [-72.39479, 18.71458], [-72.40057, 18.71173], [-72.41246, 18.7139], [-72.42673, 18.71357], [-72.45015, 18.71966], [-72.45289, 18.73141], [-72.45885, 18.73361], [-72.45779, 18.74735], [-72.46094, 18.74804], [-72.46061, 18.75092], [-72.46677, 18.75838], [-72.47724, 18.7603], [-72.48824, 18.7689], [-72.49273, 18.7683], [-72.49647, 18.76462], [-72.50282, 18.76742], [-72.51869, 18.76727], [-72.53635, 18.77304], [-72.54268, 18.77702], [-72.54871, 18.78984], [-72.55424, 18.79453], [-72.56071, 18.7963], [-72.56546, 18.81038], [-72.57325, 18.82221], [-72.57617, 18.83398], [-72.59302, 18.84709], [-72.59823, 18.85773], [-72.60256, 18.86067], [-72.61091, 18.85939], [-72.61668, 18.87208], [-72.61625, 18.88109], [-72.61925, 18.88727], [-72.62368, 18.889], [-72.62533, 18.89285], [-72.62934, 18.89541], [-72.63141, 18.90144], [-72.63461, 18.90194], [-72.6351, 18.90642], [-72.63961, 18.90705], [-72.64806, 18.91844], [-72.65517, 18.92104], [-72.66409, 18.92825], [-72.68514, 18.93678], [-72.69035, 18.94115], [-72.70999, 18.94234], [-72.71564, 18.9497], [-72.72742, 18.95331], [-72.72924, 18.97256], [-72.73737, 18.98334], [-72.73927, 18.99216], [-72.75861, 19.00729], [-72.76308, 19.01405], [-72.79618, 19.0278], [-72.81085, 19.03081], [-72.82163, 19.04555], [-72.82367, 19.05618], [-72.82223, 19.06468], [-72.81782, 19.07189], [-72.80603, 19.08037], [-72.77081, 19.09301], [-72.75782, 19.0926], [-72.75068, 19.08833], [-72.73792, 19.08951], [-72.72978, 19.08828], [-72.72046, 19.09407], [-72.71306, 19.09582], [-72.70701, 19.10067], [-72.70266, 19.10729], [-72.69958, 19.12091], [-72.70022, 19.12817], [-72.71157, 19.13593], [-72.74157, 19.14705], [-72.76213, 19.16462], [-72.77196, 19.18674], [-72.77647, 19.19164], [-72.77741, 19.19654], [-72.78214, 19.19969], [-72.78227, 19.20239], [-72.7859, 19.20639], [-72.79045, 19.20656], [-72.79029, 19.20978], [-72.79387, 19.21107], [-72.79278, 19.21462], [-72.7996, 19.22124], [-72.79482, 19.22298], [-72.79058, 19.21972], [-72.78345, 19.21964], [-72.77995, 19.22535], [-72.7797, 19.21948], [-72.77355, 19.22366], [-72.77005, 19.23056], [-72.76797, 19.22982], [-72.767, 19.23233], [-72.75777, 19.23113], [-72.75208, 19.23295], [-72.75681, 19.23933], [-72.76219, 19.24057], [-72.76392, 19.24311], [-72.76861, 19.24063], [-72.76885, 19.24356], [-72.77363, 19.23053], [-72.77698, 19.22677], [-72.78674, 19.23485], [-72.78587, 19.23767], [-72.77952, 19.23769], [-72.77654, 19.24119], [-72.77405, 19.26895], [-72.76991, 19.26685], [-72.76729, 19.27059], [-72.76706, 19.27645], [-72.76904, 19.27878], [-72.77183, 19.28001], [-72.77338, 19.27642], [-72.7735, 19.28432], [-72.74719, 19.27796], [-72.7408, 19.28236], [-72.73825, 19.28839], [-72.73933, 19.29036], [-72.73639, 19.29352], [-72.73153, 19.29293], [-72.73198, 19.28726], [-72.72869, 19.28373], [-72.7249, 19.28304], [-72.71893, 19.28719], [-72.71658, 19.29139], [-72.71518, 19.29683], [-72.72198, 19.30291], [-72.72765, 19.30352], [-72.72856, 19.30205], [-72.72659, 19.30153], [-72.72959, 19.3011], [-72.73052, 19.29795], [-72.73247, 19.29749], [-72.73086, 19.30367], [-72.73376, 19.3072], [-72.72787, 19.30479], [-72.7194, 19.30524], [-72.73238, 19.31099], [-72.72588, 19.31842], [-72.72658, 19.32133], [-72.72498, 19.32121], [-72.72732, 19.3222], [-72.72842, 19.32572], [-72.74483, 19.32458], [-72.74765, 19.32131], [-72.75008, 19.32359], [-72.74795, 19.32516], [-72.75483, 19.32512], [-72.75826, 19.32786], [-72.75569, 19.32983], [-72.76106, 19.32964], [-72.75995, 19.34414], [-72.76415, 19.341], [-72.76908, 19.34296], [-72.76968, 19.34019], [-72.77363, 19.3458], [-72.76964, 19.36415], [-72.76511, 19.37187], [-72.75814, 19.37563], [-72.74811, 19.37535], [-72.73733, 19.36356], [-72.73559, 19.36464], [-72.7332, 19.36293], [-72.73284, 19.36487], [-72.72617, 19.36904], [-72.7238, 19.3684], [-72.71898, 19.37883], [-72.71633, 19.37961], [-72.71112, 19.38659], [-72.71347, 19.39087], [-72.7126, 19.39362], [-72.71559, 19.39694], [-72.72967, 19.40311], [-72.72629, 19.41544], [-72.72689, 19.42008], [-72.7236, 19.42705], [-72.71861, 19.43116], [-72.71371, 19.42263], [-72.71744, 19.41519], [-72.70446, 19.40984], [-72.7047, 19.4072], [-72.7104, 19.40167], [-72.702, 19.39337], [-72.69533, 19.39893], [-72.68368, 19.40465], [-72.68214, 19.41203], [-72.68575, 19.41595], [-72.68933, 19.4167], [-72.689, 19.41949], [-72.69449, 19.42553], [-72.70041, 19.42786], [-72.70047, 19.44158], [-72.69726, 19.44335], [-72.69701, 19.4519], [-72.70331, 19.45513], [-72.69629, 19.45555], [-72.69706, 19.4589], [-72.69858, 19.4575], [-72.70576, 19.45851], [-72.71387, 19.45473], [-72.71264, 19.4529], [-72.70921, 19.4541], [-72.71435, 19.4494], [-72.71749, 19.45249], [-72.72293, 19.45315], [-72.72191, 19.45577], [-72.72155, 19.45305], [-72.71835, 19.45532], [-72.72556, 19.4575], [-72.7323, 19.45226], [-72.73084, 19.4501], [-72.73184, 19.44738], [-72.74466, 19.44485], [-72.75397, 19.44641], [-72.76187, 19.45243], [-72.7704, 19.45358], [-72.78284, 19.47646], [-72.80352, 19.49988], [-72.8196, 19.51291], [-72.83307, 19.51614], [-72.84846, 19.53112], [-72.85684, 19.53299], [-72.86772, 19.53974], [-72.88076, 19.54259], [-72.88702, 19.54161], [-72.88671, 19.54561], [-72.89005, 19.54452], [-72.90239, 19.55348], [-72.9209, 19.56214], [-72.96214, 19.57553], [-72.96368, 19.57976], [-72.96801, 19.58023], [-72.97838, 19.58723], [-72.97892, 19.59302], [-72.97721, 19.59476], [-72.97911, 19.59594], [-72.98107, 19.59308], [-72.98008, 19.5903], [-72.98174, 19.59018], [-72.99823, 19.60203], [-72.99142, 19.61172], [-72.99396, 19.61376], [-72.99961, 19.61094], [-73.00292, 19.60468], [-73.01519, 19.60606], [-73.01407, 19.60922], [-73.02315, 19.60954], [-73.03703, 19.61704], [-73.05338, 19.63032], [-73.10271, 19.64216], [-73.11741, 19.63787], [-73.1274, 19.62283], [-73.1446, 19.62561], [-73.15027, 19.62928], [-73.15517, 19.62915], [-73.17917, 19.63889], [-73.19281, 19.64748], [-73.20697, 19.66193], [-73.21131, 19.66174], [-73.21857, 19.65733], [-73.21957, 19.6466], [-73.22344, 19.6385], [-73.22855, 19.63204], [-73.23537, 19.62912], [-73.25937, 19.62971], [-73.26296, 19.63388], [-73.2693, 19.63373], [-73.28052, 19.6303], [-73.28703, 19.63237], [-73.29562, 19.62897], [-73.30545, 19.62904], [-73.32126, 19.62426], [-73.33524, 19.62705], [-73.34156, 19.62427], [-73.35635, 19.62626], [-73.3639, 19.62316], [-73.36912, 19.62591], [-73.37387, 19.6317], [-73.37701, 19.6301], [-73.3821, 19.633], [-73.39091, 19.6343], [-73.39101, 19.63585], [-73.41016, 19.64806], [-73.41597, 19.64901], [-73.43233, 19.66322], [-73.43472, 19.66728], [-73.43715, 19.66763], [-73.44303, 19.67755], [-73.45249, 19.68648], [-73.45518, 19.69736], [-73.4543, 19.72195], [-73.45576, 19.73917], [-73.45257, 19.75017], [-73.45262, 19.75974], [-73.44348, 19.76796], [-73.42492, 19.79676], [-73.42142, 19.79664], [-73.41797, 19.79154], [-73.41025, 19.79102], [-73.40162, 19.79676], [-73.3877, 19.7981], [-73.38226, 19.80134], [-73.37894, 19.80906], [-73.37344, 19.80839], [-73.36972, 19.81178], [-73.36827, 19.82096], [-73.36613, 19.82148], [-73.36114, 19.82901], [-73.35996, 19.83447], [-73.36411, 19.83537], [-73.36935, 19.82469], [-73.37403, 19.82016], [-73.38329, 19.81819], [-73.39405, 19.82186], [-73.40767, 19.82364], [-73.41316, 19.82044], [-73.42006, 19.82377], [-73.42146, 19.82898], [-73.41411, 19.83465], [-73.40816, 19.84309], [-73.40062, 19.84366], [-73.38915, 19.84085], [-73.37226, 19.84335], [-73.36708, 19.84597], [-73.35267, 19.8385], [-73.34061, 19.83795], [-73.33213, 19.84196], [-73.32769, 19.84643], [-73.31983, 19.84814], [-73.30355, 19.85772], [-73.29183, 19.86161], [-73.27189, 19.86465], [-73.26503, 19.86951], [-73.25892, 19.87061], [-73.24633, 19.87769], [-73.23983, 19.87536], [-73.24064, 19.87895], [-73.22928, 19.88922], [-73.20598, 19.90379], [-73.20014, 19.90459], [-73.19428, 19.9097], [-73.19315, 19.914], [-73.1873, 19.91634], [-73.18393, 19.92092], [-73.16914, 19.92685], [-73.16737, 19.9296], [-73.15876, 19.93039], [-73.15804, 19.9281], [-73.15502, 19.92878], [-73.15187, 19.92563], [-73.14721, 19.92494], [-73.12737, 19.92616], [-73.07804, 19.91912], [-73.04519, 19.91908], [-73.03192, 19.90934], [-73.02783, 19.91005], [-73.02647, 19.91563], [-73.03184, 19.91923], [-73.02973, 19.92205], [-73.01548, 19.9217], [-73.00209, 19.91716], [-72.99468, 19.92113], [-72.97374, 19.92413], [-72.96432, 19.91618], [-72.96421, 19.911], [-72.95896, 19.90957], [-72.95593, 19.91355], [-72.95662, 19.92004], [-72.95503, 19.9226], [-72.95004, 19.9234], [-72.9451, 19.92684], [-72.92675, 19.93079], [-72.89119, 19.93598], [-72.88871, 19.93391], [-72.87183, 19.93145], [-72.86089, 19.94086], [-72.85004, 19.94396], [-72.84163, 19.94285], [-72.83995, 19.94092], [-72.8364, 19.94251], [-72.83145, 19.94084], [-72.8244, 19.94588], [-72.81939, 19.95268], [-72.81638, 19.95254], [-72.81031, 19.94812], [-72.80631, 19.95115], [-72.80028, 19.94836], [-72.78108, 19.95169], [-72.77441, 19.9478], [-72.76723, 19.94901], [-72.76363, 19.94466], [-72.74587, 19.94256], [-72.74099, 19.93861], [-72.73175, 19.93536], [-72.7221, 19.93666], [-72.71856, 19.93289], [-72.70769, 19.92785], [-72.70274, 19.93024], [-72.6968, 19.925], [-72.68846, 19.92467], [-72.68781, 19.92085], [-72.68498, 19.91991], [-72.68012, 19.92299], [-72.67079, 19.92068], [-72.66888, 19.91608], [-72.66166, 19.91714], [-72.65923, 19.91436], [-72.65227, 19.91366], [-72.64661, 19.90626], [-72.6426, 19.90643], [-72.6408, 19.90883], [-72.63655, 19.90786], [-72.63597, 19.90276], [-72.63164, 19.89729], [-72.62138, 19.89342], [-72.60715, 19.89231], [-72.60265, 19.89524], [-72.59351, 19.8952], [-72.59212, 19.89865], [-72.58693, 19.89637], [-72.5844, 19.89757], [-72.58342, 19.89487], [-72.5818, 19.89765], [-72.58009, 19.89727], [-72.57865, 19.89449], [-72.57349, 19.89215], [-72.57385, 19.88705], [-72.56526, 19.88188], [-72.56007, 19.88155], [-72.56128, 19.87981], [-72.55343, 19.87645], [-72.55238, 19.87434], [-72.55576, 19.87127], [-72.54416, 19.86237], [-72.54038, 19.86165], [-72.54063, 19.85774], [-72.53213, 19.84955], [-72.52772, 19.84751], [-72.52244, 19.85006], [-72.51829, 19.83978], [-72.51314, 19.84055], [-72.51171, 19.84804], [-72.50738, 19.84669], [-72.50435, 19.83604], [-72.50126, 19.83711], [-72.49833, 19.83535], [-72.50051, 19.83025], [-72.50024, 19.82451], [-72.49385, 19.81965], [-72.49053, 19.82128], [-72.48961, 19.82635], [-72.49273, 19.82976], [-72.49165, 19.83402], [-72.48912, 19.83416], [-72.48826, 19.83033], [-72.47967, 19.82147], [-72.47183, 19.82211], [-72.46792, 19.82507], [-72.46707, 19.82851], [-72.47021, 19.83035], [-72.47022, 19.83301], [-72.45976, 19.8286], [-72.46044, 19.82565], [-72.4578, 19.82243], [-72.44464, 19.81741], [-72.43683, 19.81879], [-72.43313, 19.82135], [-72.43418, 19.82969], [-72.43061, 19.8307], [-72.4249, 19.82607], [-72.42975, 19.82214], [-72.42952, 19.81954], [-72.42313, 19.81706], [-72.42333, 19.81415], [-72.40807, 19.80458], [-72.39037, 19.8055], [-72.38622, 19.80961], [-72.38865, 19.81676], [-72.38175, 19.8172], [-72.38217, 19.80754], [-72.37635, 19.79882], [-72.35603, 19.78577], [-72.35178, 19.78018], [-72.33879, 19.77141], [-72.33349, 19.75419], [-72.32772, 19.75019], [-72.32663, 19.74598], [-72.32674, 19.74438], [-72.32856, 19.7446], [-72.32838, 19.7493], [-72.33059, 19.74991], [-72.33278, 19.74745], [-72.32984, 19.74404], [-72.33133, 19.74289], [-72.3382, 19.75234], [-72.34202, 19.75024], [-72.34267, 19.74548], [-72.33683, 19.73181], [-72.33748, 19.72319], [-72.33246, 19.7142], [-72.31935, 19.70691], [-72.31285, 19.70781], [-72.31022, 19.71053], [-72.31236, 19.71706], [-72.31008, 19.71964], [-72.31253, 19.72631], [-72.31151, 19.73277], [-72.31384, 19.73563], [-72.30839, 19.73736], [-72.30808, 19.73906], [-72.31046, 19.74392], [-72.31795, 19.74333], [-72.31975, 19.74549], [-72.31717, 19.74924], [-72.31101, 19.74794], [-72.31434, 19.76029], [-72.32003, 19.76773], [-72.31885, 19.77008], [-72.31493, 19.77027], [-72.31377, 19.76554], [-72.3039, 19.76112], [-72.29705, 19.76272], [-72.29488, 19.76559], [-72.28882, 19.76399], [-72.28488, 19.76842], [-72.28242, 19.76597], [-72.27778, 19.76602], [-72.27543, 19.763], [-72.27136, 19.76407], [-72.26921, 19.76166], [-72.26557, 19.76372], [-72.2582, 19.75963], [-72.25947, 19.77531], [-72.25305, 19.77652], [-72.24731, 19.77312], [-72.24349, 19.77332], [-72.24305, 19.77695], [-72.2459, 19.78044], [-72.24242, 19.78428], [-72.2478, 19.78593], [-72.24694, 19.7889], [-72.24221, 19.7866], [-72.23949, 19.78877], [-72.22765, 19.78295], [-72.22012, 19.78557], [-72.21532, 19.784], [-72.213, 19.78575], [-72.20366, 19.78453], [-72.2015, 19.78755], [-72.19774, 19.78838], [-72.19025, 19.78478], [-72.18901, 19.78255], [-72.19141, 19.78022], [-72.19104, 19.77528], [-72.19605, 19.76179], [-72.19475, 19.75849], [-72.19844, 19.75874], [-72.19661, 19.7567], [-72.20188, 19.75521], [-72.20206, 19.75082], [-72.19995, 19.74574], [-72.18935, 19.74053], [-72.18313, 19.74227], [-72.17402, 19.74138], [-72.17245, 19.74297], [-72.17538, 19.74606], [-72.17254, 19.74775], [-72.1669, 19.74605], [-72.1627, 19.74782], [-72.14567, 19.74315], [-72.14328, 19.74674], [-72.14603, 19.74535], [-72.14467, 19.74934], [-72.15087, 19.75309], [-72.15235, 19.75724], [-72.1349, 19.75392], [-72.1283, 19.75086], [-72.12701, 19.74296], [-72.11475, 19.7301], [-72.09343, 19.72618], [-72.07959, 19.72895], [-72.07296, 19.73233], [-72.06457, 19.73299], [-72.06133, 19.73067], [-72.05556, 19.73166], [-72.0548, 19.72726], [-72.05764, 19.72207], [-72.06511, 19.71869], [-72.06319, 19.71516], [-72.06437, 19.71346], [-72.07156, 19.71251], [-72.07833, 19.7147], [-72.0813, 19.70964], [-72.07619, 19.70882], [-72.07808, 19.70317], [-72.07468, 19.70422], [-72.06684, 19.70242], [-72.0674, 19.70669], [-72.06127, 19.70703], [-72.06026, 19.71106], [-72.06205, 19.71277], [-72.06032, 19.71584], [-72.06177, 19.71799], [-72.05676, 19.71732], [-72.05293, 19.72087], [-72.05436, 19.72287], [-72.05156, 19.72812], [-72.04763, 19.73128], [-72.04462, 19.73026], [-72.0492, 19.73531], [-72.04743, 19.73767], [-72.04533, 19.73696], [-72.04522, 19.73464], [-72.04391, 19.73386], [-72.04378, 19.73579], [-72.04084, 19.73389], [-72.03648, 19.72739], [-72.03688, 19.72355], [-72.04026, 19.72074], [-72.03681, 19.71665], [-72.03627, 19.70764], [-72.04261, 19.70265], [-72.04679, 19.70166], [-72.05478, 19.70445], [-72.06462, 19.69884], [-72.06468, 19.69659], [-72.05753, 19.69704], [-72.05652, 19.6961], [-72.05908, 19.69328], [-72.05444, 19.69424], [-72.05249, 19.69302], [-72.05403, 19.69086], [-72.05242, 19.68975], [-72.04664, 19.69084], [-72.04279, 19.69379], [-72.039, 19.69236], [-72.03814, 19.69877], [-72.04133, 19.70009], [-72.0337, 19.70101], [-72.02997, 19.6987], [-72.0189, 19.6969], [-72.00788, 19.70034], [-72.00667, 19.7061], [-72.00398, 19.7055], [-71.99803, 19.69895], [-71.99248, 19.69845], [-71.98919, 19.70466], [-71.9895, 19.71049], [-71.99127, 19.7114], [-71.99189, 19.72622], [-71.98726, 19.72951], [-71.98456, 19.72857], [-71.9864, 19.73211], [-71.98862, 19.73207], [-71.98665, 19.73332], [-71.98276, 19.73222], [-71.96607, 19.73484], [-71.96148, 19.73427], [-71.95656, 19.72953], [-71.94779, 19.72695], [-71.94529, 19.72906], [-71.93788, 19.7302], [-71.9286, 19.72683], [-71.90803, 19.72624], [-71.89287, 19.71959], [-71.88097, 19.72008], [-71.86807, 19.7162], [-71.85231, 19.71691], [-71.84847, 19.7137], [-71.8457, 19.70766], [-71.84602, 19.70264], [-71.8485, 19.70139], [-71.84981, 19.69697], [-71.84851, 19.69485], [-71.85145, 19.69107], [-71.85472, 19.68994], [-71.85691, 19.69258], [-71.85927, 19.69031], [-71.86311, 19.69108], [-71.86722, 19.68808], [-71.86671, 19.68573], [-71.87207, 19.68426], [-71.87162, 19.68056], [-71.87557, 19.6796], [-71.87548, 19.68168], [-71.88048, 19.68452], [-71.88261, 19.6828], [-71.88376, 19.68598], [-71.8888, 19.68436], [-71.89329, 19.68714], [-71.89606, 19.68288], [-71.89789, 19.68613], [-71.89971, 19.68532], [-71.90478, 19.68771], [-71.90103, 19.68159], [-71.90269, 19.68001], [-71.90003, 19.6785], [-71.8974, 19.68031], [-71.89472, 19.67804], [-71.8906, 19.68214], [-71.88731, 19.68153], [-71.88606, 19.67721], [-71.89094, 19.677], [-71.8975, 19.6689], [-71.88876, 19.67199], [-71.8883, 19.66874], [-71.88419, 19.66711], [-71.88478, 19.66449], [-71.87868, 19.66069], [-71.86578, 19.66635], [-71.86505, 19.66961], [-71.86035, 19.66856], [-71.85709, 19.67126], [-71.85358, 19.66828], [-71.8467, 19.66943], [-71.84087, 19.67569], [-71.84171, 19.67318], [-71.83825, 19.6687], [-71.82588, 19.66232], [-71.82773, 19.65892], [-71.82511, 19.65662], [-71.82554, 19.65374], [-71.82257, 19.65237], [-71.82524, 19.65047], [-71.82474, 19.64856], [-71.82202, 19.64786], [-71.81618, 19.65184], [-71.81893, 19.65561], [-71.81635, 19.65626], [-71.81554, 19.65928], [-71.8191, 19.65884], [-71.81969, 19.66111], [-71.8161, 19.66246], [-71.81588, 19.66477], [-71.8178, 19.66378], [-71.81801, 19.66647], [-71.82028, 19.66625], [-71.82028, 19.66779], [-71.81909, 19.66935], [-71.81874, 19.6676], [-71.81706, 19.66908], [-71.81636, 19.66738], [-71.81184, 19.66715], [-71.81046, 19.66891], [-71.81848, 19.67269], [-71.81088, 19.67125], [-71.81006, 19.67553], [-71.81559, 19.67943], [-71.81878, 19.6844], [-71.82021, 19.68138], [-71.8217, 19.68243], [-71.82307, 19.68088], [-71.82393, 19.6832], [-71.82944, 19.68414], [-71.83176, 19.68809], [-71.83523, 19.68661], [-71.83657, 19.68922], [-71.84095, 19.68759], [-71.84237, 19.69838], [-71.83971, 19.69987], [-71.83992, 19.70191], [-71.84286, 19.70485], [-71.84198, 19.7079], [-71.84419, 19.71211], [-71.83583, 19.71447], [-71.81649, 19.71297], [-71.76103, 19.70471], [-71.75834, 19.69988], [-71.76041, 19.69842], [-71.76158, 19.69323], [-71.75914, 19.69497], [-71.75931, 19.69319], [-71.75509, 19.6922], [-71.75959, 19.68848], [-71.75413, 19.68584], [-71.75616, 19.68508], [-71.75501, 19.68371], [-71.75632, 19.68229], [-71.75449, 19.68136], [-71.75689, 19.67838], [-71.75626, 19.67609], [-71.75345, 19.67573], [-71.74348, 19.66488], [-71.73965, 19.66521], [-71.73534, 19.66176], [-71.73246, 19.6464], [-71.74577, 19.63388], [-71.74316, 19.58478], [-71.71976, 19.56212], [-71.71322, 19.55144], [-71.71196, 19.54906], [-71.71284, 19.5339], [-71.70772, 19.53134], [-71.705, 19.53431], [-71.7029, 19.53366], [-71.70357, 19.52228], [-71.69967, 19.51984], [-71.69929, 19.51243], [-71.69274, 19.51065], [-71.68862, 19.51323], [-71.68956, 19.50684], [-71.68792, 19.50286], [-71.69049, 19.49928], [-71.69196, 19.4939], [-71.6908, 19.49244], [-71.69417, 19.48956], [-71.69203, 19.48194], [-71.69424, 19.47722], [-71.68855, 19.47196], [-71.69066, 19.46834], [-71.68701, 19.46773], [-71.68771, 19.46302], [-71.68541, 19.46033], [-71.68705, 19.45936], [-71.68144, 19.45117], [-71.67993, 19.45158], [-71.67849, 19.44412], [-71.68074, 19.44053], [-71.67973, 19.43434], [-71.68368, 19.43312], [-71.68268, 19.43162], [-71.6867, 19.4228], [-71.68943, 19.42225], [-71.68999, 19.40754], [-71.69816, 19.3961], [-71.6934, 19.37496], [-71.69103, 19.37188], [-71.69399, 19.36873], [-71.69212, 19.36319], [-71.69373, 19.36042], [-71.7013, 19.35964], [-71.70333, 19.36488], [-71.7141, 19.37174], [-71.71696, 19.36854], [-71.71819, 19.36292], [-71.72446, 19.36666], [-71.73162, 19.36074], [-71.735, 19.3608], [-71.74826, 19.35364], [-71.75266, 19.33975], [-71.77225, 19.33862], [-71.78573, 19.33103], [-71.77915, 19.32913], [-71.77376, 19.3205], [-71.76869, 19.32004], [-71.76971, 19.31767], [-71.76735, 19.31663], [-71.7665, 19.31192], [-71.76272, 19.30753], [-71.76427, 19.30369], [-71.75953, 19.30366], [-71.75609, 19.29908], [-71.76031, 19.29589], [-71.76109, 19.29157], [-71.75646, 19.2914], [-71.75326, 19.28834], [-71.75486, 19.28033], [-71.74865, 19.27806], [-71.74825, 19.27459], [-71.73891, 19.27881], [-71.73843, 19.26907], [-71.7317, 19.2623], [-71.73222, 19.26657], [-71.72769, 19.27731], [-71.72556, 19.27841], [-71.72193, 19.27082], [-71.7238, 19.26773], [-71.71988, 19.26625], [-71.71675, 19.26727], [-71.71601, 19.26469], [-71.70869, 19.25971], [-71.7081, 19.25118], [-71.69826, 19.24423], [-71.69701, 19.24083], [-71.69256, 19.24203], [-71.69008, 19.23871], [-71.68567, 19.23908], [-71.68484, 19.23662], [-71.68079, 19.23677], [-71.67915, 19.23246], [-71.67638, 19.23585], [-71.67157, 19.23551], [-71.66994, 19.23305], [-71.66662, 19.23403], [-71.66729, 19.23089], [-71.66517, 19.22931], [-71.65282, 19.23027], [-71.64662, 19.2283], [-71.63976, 19.22957], [-71.6384, 19.2279], [-71.64072, 19.22479], [-71.63584, 19.22524], [-71.63385, 19.21673], [-71.6286, 19.21122], [-71.6337, 19.20795], [-71.62686, 19.20929], [-71.62215, 19.20615]]]]}}]}