{"type": "FeatureCollection", "features": [{"type": "Feature", "properties": {"section": "Anse à Drick", "nom_cnigs": "2e Section Anse à Drick", "commune": "Arniquet", "departement": "Sud", "pcode": "HT0723-02"}, "geometry": {"type": "Polygon", "coordinates": [[[-73.906074, 18.170155], [-73.900428, 18.16893], [-73.896325, 18.170389], [-73.895068, 18.168935], [-73.894467, 18.168245], [-73.892388, 18.168089], [-73.890952, 18.167972], [-73.889659, 18.167558], [-73.883664, 18.166348], [-73.881098, 18.164011], [-73.880671, 18.162716], [-73.880493, 18.162489], [-73.879784, 18.161057], [-73.880195, 18.160264], [-73.88305, 18.160245], [-73.889116, 18.154803], [-73.891858, 18.154702], [-73.894837, 18.153101], [-73.897145, 18.151289], [-73.900893, 18.150461], [-73.902145, 18.149817], [-73.910186, 18.139732], [-73.909409, 18.135426], [-73.906163, 18.128431], [-73.904664, 18.12488], [-73.906129, 18.123297], [-73.910382, 18.120366], [-73.91614, 18.115401], [-73.918443, 18.10963], [-73.921136, 18.108254], [-73.926057, 18.108606], [-73.929623, 18.112901], [-73.934043, 18.11335], [-73.94296, 18.108675], [-73.942964, 18.108673], [-73.942996, 18.108825], [-73.943295, 18.110247], [-73.94386, 18.110612], [-73.943827, 18.11138], [-73.944427, 18.112187], [-73.944044, 18.113008], [-73.942935, 18.11358], [-73.942238, 18.114679], [-73.942423, 18.117029], [-73.942828, 18.118722], [-73.944634, 18.121849], [-73.947033, 18.125324], [-73.947009, 18.126065], [-73.946628, 18.126677], [-73.946643, 18.127201], [-73.95, 18.131793], [-73.949161, 18.132873], [-73.946948, 18.133086], [-73.947576, 18.135575], [-73.947215, 18.137489], [-73.94864, 18.139539], [-73.948801, 18.152039], [-73.946788, 18.1598], [-73.946595, 18.162167], [-73.941285, 18.164713], [-73.938489, 18.167553], [-73.937138, 18.168929], [-73.936975, 18.175453], [-73.934363, 18.180608], [-73.930296, 18.182474], [-73.924603, 18.181141], [-73.920362, 18.177339], [-73.9137, 18.172295], [-73.906074, 18.170155]]]}}, {"type": "Feature", "properties": {"section": "Barbois", "nom_cnigs": "1re Section Barbois", "commune": "Port-Salut", "departement": "Sud", "pcode": "HT0721-01"}, "geometry": {"type": "Polygon", "coordinates": [[[-73.872928, 18.152549], [-73.869121, 18.149165], [-73.867996, 18.149194], [-73.867339, 18.148477], [-73.867671, 18.146834], [-73.867747, 18.143924], [-73.868288, 18.142021], [-73.868351, 18.141018], [-73.867351, 18.14075], [-73.865697, 18.140686], [-73.864404, 18.140416], [-73.862921, 18.140299], [-73.862164, 18.138912], [-73.863793, 18.136951], [-73.862072, 18.135631], [-73.860302, 18.134617], [-73.859175, 18.132008], [-73.857078, 18.13036], [-73.857059, 18.128814], [-73.857513, 18.127452], [-73.85758, 18.125862], [-73.856823, 18.124484], [-73.856303, 18.123098], [-73.855127, 18.122197], [-73.854002, 18.122289], [-73.853522, 18.114768], [-73.85272, 18.108744], [-73.855696, 18.102969], [-73.860018, 18.099533], [-73.861174, 18.099097], [-73.861262, 18.0957], [-73.865034, 18.09405], [-73.865929, 18.092908], [-73.869868, 18.091693], [-73.870103, 18.089046], [-73.872458, 18.084135], [-73.875291, 18.081576], [-73.877256, 18.080042], [-73.877517, 18.079239], [-73.880428, 18.077593], [-73.882925, 18.074183], [-73.884694, 18.070876], [-73.887312, 18.070774], [-73.890484, 18.072708], [-73.893058, 18.072018], [-73.897789, 18.070978], [-73.901946, 18.071147], [-73.902885, 18.07051], [-73.905863, 18.071711], [-73.908596, 18.065247], [-73.909344, 18.066589], [-73.91907, 18.076765], [-73.918245, 18.077167], [-73.917884, 18.077527], [-73.917614, 18.078384], [-73.919264, 18.08058], [-73.920012, 18.081795], [-73.920766, 18.082134], [-73.92157, 18.08212], [-73.922345, 18.082016], [-73.923316, 18.082464], [-73.923453, 18.083143], [-73.922692, 18.084069], [-73.92212, 18.084853], [-73.922794, 18.085787], [-73.923688, 18.086407], [-73.924545, 18.086999], [-73.925788, 18.087656], [-73.926312, 18.088554], [-73.926284, 18.090072], [-73.926741, 18.091033], [-73.92771, 18.091671], [-73.929026, 18.092871], [-73.929948, 18.09359], [-73.931079, 18.093976], [-73.93134, 18.094547], [-73.934135, 18.096623], [-73.937936, 18.097764], [-73.939091, 18.099036], [-73.939703, 18.099319], [-73.939587, 18.09978], [-73.938921, 18.100499], [-73.93868, 18.101428], [-73.938946, 18.102641], [-73.940569, 18.10462], [-73.940726, 18.105217], [-73.941317, 18.10598], [-73.942605, 18.107198], [-73.942964, 18.108673], [-73.94296, 18.108675], [-73.934043, 18.11335], [-73.929623, 18.112901], [-73.926057, 18.108606], [-73.921136, 18.108254], [-73.918443, 18.10963], [-73.91614, 18.115401], [-73.910382, 18.120366], [-73.906129, 18.123297], [-73.904664, 18.12488], [-73.897622, 18.120429], [-73.893517, 18.123948], [-73.894728, 18.128248], [-73.883989, 18.134539], [-73.877239, 18.145019], [-73.877138, 18.147558], [-73.872928, 18.152549]]]}}, {"type": "Feature", "properties": {"section": "Beaulieu", "nom_cnigs": "1re Section Beaulieu", "commune": "Roche à Bâteau", "departement": "Sud", "pcode": "HT0743-01"}, "geometry": {"type": "Polygon", "coordinates": [[[-73.948264, 18.167553], [-73.946595, 18.162167], [-73.946788, 18.1598], [-73.948801, 18.152039], [-73.94864, 18.139539], [-73.947215, 18.137489], [-73.947576, 18.135575], [-73.946948, 18.133086], [-73.949161, 18.132873], [-73.95, 18.131793], [-73.952005, 18.133159], [-73.953232, 18.133419], [-73.954235, 18.133198], [-73.955179, 18.133448], [-73.956087, 18.133362], [-73.956787, 18.133312], [-73.957701, 18.133814], [-73.958977, 18.133775], [-73.960936, 18.133415], [-73.961762, 18.13426], [-73.962611, 18.134626], [-73.964514, 18.135757], [-73.965574, 18.137028], [-73.966795, 18.138418], [-73.967915, 18.140837], [-73.969303, 18.142778], [-73.970507, 18.14367], [-73.970769, 18.144223], [-73.972185, 18.144574], [-73.9739, 18.145469], [-73.974822, 18.146224], [-73.975615, 18.148026], [-73.975696, 18.148695], [-73.976474, 18.149793], [-73.977865, 18.151138], [-73.97784, 18.152168], [-73.979096, 18.154154], [-73.980891, 18.155881], [-73.98033, 18.156565], [-73.979363, 18.157038], [-73.979007, 18.158003], [-73.978927, 18.158753], [-73.980167, 18.160188], [-73.97997, 18.161452], [-73.979304, 18.162235], [-73.979016, 18.162992], [-73.979627, 18.163673], [-73.980392, 18.163704], [-73.981683, 18.164389], [-73.984072, 18.164989], [-73.987908, 18.165244], [-73.990936, 18.164817], [-73.9958, 18.165629], [-74.000829, 18.165827], [-74.001218, 18.168784], [-74.001945, 18.169032], [-74.002128, 18.170081], [-74.001648, 18.171353], [-74.002305, 18.172287], [-74.00323, 18.172572], [-74.003935, 18.174817], [-74.003756, 18.178043], [-74.003911, 18.179083], [-74.005204, 18.181186], [-74.00389, 18.181207], [-73.999677, 18.182079], [-73.998986, 18.18222], [-73.992398, 18.183587], [-73.987906, 18.186979], [-73.982384, 18.188748], [-73.972911, 18.190054], [-73.969592, 18.191753], [-73.96489, 18.195442], [-73.962294, 18.196341], [-73.957678, 18.201277], [-73.952727, 18.203799], [-73.950712, 18.202486], [-73.945418, 18.199168], [-73.940552, 18.1954], [-73.945859, 18.188678], [-73.946308, 18.181577], [-73.948566, 18.17558], [-73.94882, 18.169372], [-73.948264, 18.167553]]]}}, {"type": "Feature", "properties": {"section": "Blactote", "nom_cnigs": "1re Section Blactote", "commune": "Tiburon", "departement": "Sud", "pcode": "HT0753-01"}, "geometry": {"type": "Polygon", "coordinates": [[[-74.301955, 18.33218], [-74.298653, 18.329755], [-74.295423, 18.328062], [-74.293136, 18.327267], [-74.29036, 18.325865], [-74.289413, 18.321261], [-74.287955, 18.316845], [-74.28817, 18.315201], [-74.292974, 18.313538], [-74.297434, 18.308068], [-74.304132, 18.303655], [-74.30997, 18.30148], [-74.314611, 18.300141], [-74.319375, 18.301442], [-74.325386, 18.300857], [-74.331301, 18.300309], [-74.33414, 18.297897], [-74.334793, 18.292829], [-74.336032, 18.289937], [-74.336034, 18.289932], [-74.337366, 18.290542], [-74.338237, 18.290391], [-74.339881, 18.29093], [-74.340531, 18.291646], [-74.342036, 18.291615], [-74.343055, 18.292143], [-74.343706, 18.292787], [-74.344396, 18.292844], [-74.346007, 18.292271], [-74.348056, 18.293344], [-74.349915, 18.293521], [-74.349929, 18.293522], [-74.350393, 18.29378], [-74.351912, 18.294623], [-74.351946, 18.294621], [-74.356378, 18.294403], [-74.358359, 18.296163], [-74.361575, 18.29649], [-74.362663, 18.296313], [-74.36446, 18.296671], [-74.36593, 18.295718], [-74.367585, 18.295823], [-74.368652, 18.296441], [-74.369655, 18.296444], [-74.371292, 18.298917], [-74.372396, 18.299825], [-74.37303, 18.299845], [-74.373716, 18.301203], [-74.37378, 18.301944], [-74.374856, 18.302409], [-74.375723, 18.303469], [-74.376577, 18.305514], [-74.379569, 18.307548], [-74.381287, 18.308787], [-74.382726, 18.309824], [-74.382731, 18.309827], [-74.383984, 18.311341], [-74.384096, 18.311965], [-74.383514, 18.313147], [-74.383803, 18.314332], [-74.38868, 18.316001], [-74.389297, 18.315606], [-74.391728, 18.315857], [-74.393129, 18.315672], [-74.394727, 18.316138], [-74.396507, 18.315692], [-74.39835, 18.316393], [-74.401879, 18.319179], [-74.401119, 18.320298], [-74.400487, 18.320474], [-74.399745, 18.320682], [-74.399155, 18.321511], [-74.398308, 18.323072], [-74.397516, 18.324805], [-74.397511, 18.324806], [-74.388827, 18.325293], [-74.385071, 18.325109], [-74.381603, 18.323823], [-74.375264, 18.320639], [-74.370578, 18.315852], [-74.367483, 18.318879], [-74.360799, 18.319643], [-74.358088, 18.32089], [-74.354362, 18.32264], [-74.352507, 18.322742], [-74.349997, 18.326041], [-74.342636, 18.327995], [-74.335844, 18.327339], [-74.334333, 18.326484], [-74.329281, 18.328626], [-74.326544, 18.329051], [-74.323167, 18.328813], [-74.318051, 18.330259], [-74.316008, 18.329881], [-74.310737, 18.329943], [-74.303956, 18.331256], [-74.301955, 18.33218]]]}}, {"type": "Feature", "properties": {"section": "Dalmette", "nom_cnigs": "4e Section Dalmette", "commune": "Tiburon", "departement": "Sud", "pcode": "HT0753-04"}, "geometry": {"type": "Polygon", "coordinates": [[[-74.22821, 18.350396], [-74.225382, 18.345775], [-74.222715, 18.341137], [-74.221741, 18.336759], [-74.227466, 18.334776], [-74.228443, 18.334219], [-74.233861, 18.331114], [-74.237281, 18.325949], [-74.241601, 18.322487], [-74.245631, 18.318409], [-74.248063, 18.316367], [-74.24969, 18.314204], [-74.252069, 18.311014], [-74.253146, 18.311506], [-74.257546, 18.311551], [-74.26315, 18.308626], [-74.272405, 18.304079], [-74.280921, 18.299285], [-74.283623, 18.298003], [-74.29176, 18.293325], [-74.300686, 18.287745], [-74.301614, 18.287495], [-74.303857, 18.287296], [-74.306203, 18.287304], [-74.307787, 18.286307], [-74.308998, 18.286356], [-74.310535, 18.285449], [-74.311605, 18.284992], [-74.312237, 18.285455], [-74.314357, 18.28549], [-74.315586, 18.285747], [-74.316246, 18.286193], [-74.318421, 18.286354], [-74.320438, 18.286099], [-74.323266, 18.286281], [-74.326185, 18.287547], [-74.330224, 18.287715], [-74.334326, 18.288823], [-74.335458, 18.289677], [-74.336034, 18.289932], [-74.336032, 18.289937], [-74.334793, 18.292829], [-74.33414, 18.297897], [-74.331301, 18.300309], [-74.325386, 18.300857], [-74.319375, 18.301442], [-74.314611, 18.300141], [-74.30997, 18.30148], [-74.304132, 18.303655], [-74.297434, 18.308068], [-74.292974, 18.313538], [-74.28817, 18.315201], [-74.287955, 18.316845], [-74.289413, 18.321261], [-74.29036, 18.325865], [-74.288259, 18.328225], [-74.28242, 18.332812], [-74.279357, 18.33422], [-74.275498, 18.335995], [-74.267104, 18.336008], [-74.263086, 18.33733], [-74.259796, 18.340878], [-74.255213, 18.34377], [-74.249688, 18.345402], [-74.246775, 18.347099], [-74.239541, 18.34998], [-74.233551, 18.349713], [-74.22821, 18.350396]]]}}, {"type": "Feature", "properties": {"section": "Débouchette", "nom_cnigs": "2e Section Debouchette", "commune": "Saint Jean du Sud", "departement": "Sud", "pcode": "HT0722-02"}, "geometry": {"type": "Polygon", "coordinates": [[[-73.839526, 18.068586], [-73.838658, 18.064053], [-73.836926, 18.060319], [-73.834576, 18.057034], [-73.831692, 18.054513], [-73.828301, 18.051555], [-73.827773, 18.048588], [-73.828656, 18.046442], [-73.831085, 18.043493], [-73.829639, 18.042129], [-73.828026, 18.041748], [-73.828657, 18.039213], [-73.828004, 18.037889], [-73.826831, 18.03678], [-73.827789, 18.036162], [-73.828771, 18.034722], [-73.826081, 18.033061], [-73.826033, 18.027449], [-73.82637, 18.026456], [-73.827284, 18.026869], [-73.828023, 18.026512], [-73.82849, 18.025792], [-73.829185, 18.0251], [-73.830319, 18.025025], [-73.831156, 18.025509], [-73.83555, 18.025238], [-73.839028, 18.024987], [-73.839875, 18.025417], [-73.843127, 18.025102], [-73.84735, 18.025064], [-73.848481, 18.025324], [-73.849987, 18.026201], [-73.850726, 18.025807], [-73.856008, 18.025604], [-73.861152, 18.024848], [-73.865279, 18.024944], [-73.866, 18.024388], [-73.866877, 18.023246], [-73.870197, 18.022479], [-73.872523, 18.02214], [-73.876319, 18.022298], [-73.880509, 18.022982], [-73.882658, 18.023708], [-73.884087, 18.024755], [-73.884825, 18.024651], [-73.885811, 18.024033], [-73.88664, 18.024391], [-73.88742, 18.025028], [-73.886271, 18.030498], [-73.882453, 18.035202], [-73.881594, 18.042689], [-73.881649, 18.047407], [-73.880936, 18.051108], [-73.877666, 18.055725], [-73.877406, 18.056474], [-73.875819, 18.056455], [-73.873039, 18.058337], [-73.870032, 18.058735], [-73.867292, 18.055791], [-73.865341, 18.052129], [-73.863759, 18.051333], [-73.860799, 18.053186], [-73.85955, 18.052122], [-73.857364, 18.051097], [-73.854388, 18.054052], [-73.850044, 18.056683], [-73.848656, 18.05954], [-73.849564, 18.063729], [-73.847955, 18.066946], [-73.84467, 18.068029], [-73.842965, 18.068624], [-73.841545, 18.068995], [-73.839526, 18.068586]]]}}, {"type": "Feature", "properties": {"section": "Dumont", "nom_cnigs": "2e Section Dumont", "commune": "Port-Salut", "departement": "Sud", "pcode": "HT0721-02"}, "geometry": {"type": "Polygon", "coordinates": [[[-73.880517, 18.071042], [-73.881927, 18.067733], [-73.881951, 18.065357], [-73.878561, 18.062038], [-73.877597, 18.059141], [-73.877406, 18.056474], [-73.877666, 18.055725], [-73.880936, 18.051108], [-73.881649, 18.047407], [-73.881594, 18.042689], [-73.882453, 18.035202], [-73.886271, 18.030498], [-73.88742, 18.025028], [-73.890807, 18.025725], [-73.891491, 18.026551], [-73.89248, 18.027027], [-73.893071, 18.027744], [-73.893701, 18.028155], [-73.893866, 18.029023], [-73.896079, 18.030093], [-73.901233, 18.030674], [-73.902902, 18.031135], [-73.90429, 18.032751], [-73.904675, 18.034661], [-73.903671, 18.036625], [-73.903005, 18.037444], [-73.902461, 18.038326], [-73.902769, 18.038879], [-73.902585, 18.03961], [-73.903223, 18.040391], [-73.903636, 18.040791], [-73.902845, 18.043471], [-73.903608, 18.045328], [-73.904691, 18.045885], [-73.905325, 18.045699], [-73.905289, 18.046964], [-73.905981, 18.048079], [-73.906813, 18.04803], [-73.906942, 18.048537], [-73.906632, 18.049782], [-73.907194, 18.050535], [-73.907446, 18.051106], [-73.907917, 18.051244], [-73.909528, 18.053486], [-73.911218, 18.055248], [-73.911908, 18.055216], [-73.912414, 18.055906], [-73.912494, 18.05831], [-73.912765, 18.058755], [-73.912596, 18.060082], [-73.913072, 18.061124], [-73.915263, 18.062673], [-73.917133, 18.064355], [-73.917459, 18.06517], [-73.91747, 18.066508], [-73.91791, 18.067161], [-73.918237, 18.067732], [-73.918489, 18.06824], [-73.918966, 18.069083], [-73.919356, 18.070188], [-73.919419, 18.070342], [-73.919831, 18.071347], [-73.919324, 18.072365], [-73.919452, 18.072935], [-73.920788, 18.073937], [-73.920812, 18.074678], [-73.920144, 18.075759], [-73.91907, 18.076765], [-73.909344, 18.066589], [-73.908596, 18.065247], [-73.905863, 18.071711], [-73.902885, 18.07051], [-73.901946, 18.071147], [-73.897789, 18.070978], [-73.893058, 18.072018], [-73.890484, 18.072708], [-73.887312, 18.070774], [-73.884694, 18.070876], [-73.882925, 18.074183], [-73.880428, 18.077593], [-73.877517, 18.079239], [-73.880472, 18.075036], [-73.880517, 18.071042]]]}}, {"type": "Feature", "properties": {"section": "Mouline", "nom_cnigs": "3e Section Mouline", "commune": "Beaumont", "departement": "Grande'Anse", "pcode": "HT0833-03"}, "geometry": {"type": "Polygon", "coordinates": [[[-73.983619, 18.495226], [-73.982918, 18.492068], [-73.97735, 18.48864], [-73.975109, 18.487959], [-73.973042, 18.486836], [-73.972558, 18.483779], [-73.973943, 18.481871], [-73.976994, 18.479917], [-73.980435, 18.477939], [-73.97997, 18.476463], [-73.976485, 18.474709], [-73.972739, 18.472529], [-73.9702, 18.470979], [-73.971641, 18.469116], [-73.975491, 18.468369], [-73.980738, 18.468207], [-73.98418, 18.469139], [-73.98781, 18.470215], [-73.98933, 18.467829], [-73.986753, 18.464769], [-73.987306, 18.460922], [-73.98607, 18.458575], [-73.983146, 18.45658], [-73.981897, 18.453257], [-73.98483, 18.450336], [-73.989225, 18.448525], [-73.989931, 18.446125], [-73.991155, 18.440826], [-73.996619, 18.435813], [-73.996842, 18.431702], [-73.995427, 18.427393], [-73.993712, 18.422865], [-73.997426, 18.4142], [-73.999675, 18.409964], [-74.001341, 18.406819], [-74.002756, 18.399362], [-74.003226, 18.393472], [-74.002761, 18.383727], [-74.007725, 18.383039], [-74.015578, 18.381941], [-74.022874, 18.38234], [-74.031885, 18.384095], [-74.035539, 18.387484], [-74.041275, 18.387603], [-74.040771, 18.393231], [-74.038411, 18.397078], [-74.035906, 18.401611], [-74.033292, 18.406921], [-74.031551, 18.410084], [-74.031182, 18.413345], [-74.031242, 18.417827], [-74.030449, 18.422613], [-74.028925, 18.425841], [-74.027718, 18.428329], [-74.028462, 18.430818], [-74.029608, 18.43414], [-74.031268, 18.433607], [-74.033924, 18.432716], [-74.037134, 18.43266], [-74.037826, 18.435836], [-74.035843, 18.439992], [-74.033122, 18.443973], [-74.032838, 18.449104], [-74.033877, 18.452996], [-74.037417, 18.453294], [-74.038781, 18.454855], [-74.040384, 18.456219], [-74.042275, 18.456653], [-74.042219, 18.458289], [-74.04096, 18.459783], [-74.040831, 18.460839], [-74.041469, 18.4619], [-74.041577, 18.46303], [-74.040813, 18.464165], [-74.040882, 18.465286], [-74.041495, 18.465777], [-74.041697, 18.466908], [-74.041216, 18.468342], [-74.041706, 18.470486], [-74.041149, 18.471776], [-74.040227, 18.472512], [-74.039269, 18.474351], [-74.039018, 18.47698], [-74.038155, 18.478837], [-74.036758, 18.479652], [-74.034769, 18.479751], [-74.033817, 18.48055], [-74.030788, 18.480345], [-74.02979, 18.480891], [-74.029613, 18.481993], [-74.030408, 18.483858], [-74.029964, 18.486929], [-74.030076, 18.489026], [-74.03117, 18.491571], [-74.029543, 18.494563], [-74.024752, 18.495903], [-74.021806, 18.497587], [-74.016791, 18.498329], [-74.012454, 18.498107], [-74.007799, 18.498878], [-74.004386, 18.499276], [-74.001772, 18.499299], [-73.999671, 18.499034], [-73.99827, 18.498864], [-73.995295, 18.498903], [-73.993202, 18.498901], [-73.990705, 18.498264], [-73.988512, 18.49752], [-73.986237, 18.496252], [-73.985094, 18.49574], [-73.983619, 18.495226]]]}}, {"type": "Feature", "properties": {"section": "Quentin", "nom_cnigs": "3e Section Quentin", "commune": "Côteaux", "departement": "Sud", "pcode": "HT0741-03"}, "geometry": {"type": "Polygon", "coordinates": [[[-74.005615, 18.290179], [-74.002381, 18.285038], [-73.999671, 18.282503], [-73.998043, 18.280994], [-73.993781, 18.278495], [-73.998376, 18.277381], [-73.999672, 18.277396], [-74.005517, 18.277499], [-74.007051, 18.272293], [-74.011742, 18.269036], [-74.012933, 18.266006], [-74.013826, 18.263534], [-74.019381, 18.263201], [-74.027631, 18.262828], [-74.029415, 18.267021], [-74.030675, 18.271826], [-74.031781, 18.273676], [-74.037918, 18.272396], [-74.043247, 18.270055], [-74.046632, 18.26174], [-74.04917, 18.257577], [-74.049613, 18.250991], [-74.051916, 18.244911], [-74.054506, 18.241706], [-74.060585, 18.238682], [-74.063676, 18.235452], [-74.065489, 18.228882], [-74.06766, 18.229787], [-74.068729, 18.229747], [-74.070351, 18.23065], [-74.072173, 18.231273], [-74.074885, 18.231621], [-74.076609, 18.232939], [-74.074075, 18.236416], [-74.073333, 18.240687], [-74.066151, 18.246662], [-74.062368, 18.253593], [-74.061971, 18.26055], [-74.058711, 18.265261], [-74.055748, 18.265653], [-74.05396, 18.272594], [-74.049737, 18.278655], [-74.046016, 18.282613], [-74.04069, 18.280833], [-74.036414, 18.282664], [-74.030742, 18.286955], [-74.02762, 18.286867], [-74.023513, 18.29047], [-74.018751, 18.291187], [-74.017959, 18.294066], [-74.017973, 18.301476], [-74.016239, 18.3037], [-74.011925, 18.300216], [-74.007156, 18.295329], [-74.005615, 18.290179]]]}}, {"type": "Feature", "properties": {"section": "Trichet", "nom_cnigs": "3e Section Trichet", "commune": "Saint Jean du Sud", "departement": "Sud", "pcode": "HT0722-03"}, "geometry": {"type": "Polygon", "coordinates": [[[-73.810187, 18.075863], [-73.808605, 18.07513], [-73.808544, 18.074343], [-73.809189, 18.072657], [-73.80937, 18.071023], [-73.808949, 18.070315], [-73.80799, 18.068312], [-73.806892, 18.067194], [-73.804371, 18.065515], [-73.802957, 18.065082], [-73.802529, 18.065441], [-73.802129, 18.065881], [-73.801488, 18.065733], [-73.80173, 18.064803], [-73.800915, 18.063777], [-73.800823, 18.062114], [-73.79994, 18.061349], [-73.799194, 18.061218], [-73.796994, 18.059704], [-73.795051, 18.057803], [-73.792374, 18.055518], [-73.791524, 18.055495], [-73.791445, 18.056046], [-73.790905, 18.056214], [-73.789402, 18.055012], [-73.788318, 18.054544], [-73.786816, 18.054489], [-73.787181, 18.055124], [-73.789912, 18.056334], [-73.790756, 18.057288], [-73.791149, 18.057887], [-73.79138, 18.05863], [-73.791048, 18.058817], [-73.789757, 18.058258], [-73.78945, 18.057642], [-73.788792, 18.057041], [-73.788324, 18.056451], [-73.787346, 18.055803], [-73.786595, 18.055166], [-73.78594, 18.054213], [-73.785688, 18.052341], [-73.786114, 18.052199], [-73.786679, 18.0525], [-73.787084, 18.052666], [-73.786769, 18.053197], [-73.786576, 18.053702], [-73.78757, 18.0535], [-73.788002, 18.0524], [-73.788337, 18.051833], [-73.787207, 18.051211], [-73.786814, 18.050721], [-73.786342, 18.050628], [-73.78601, 18.050824], [-73.785558, 18.05065], [-73.78483, 18.050681], [-73.784701, 18.050211], [-73.784019, 18.049131], [-73.783442, 18.047889], [-73.784308, 18.045518], [-73.782966, 18.044326], [-73.782878, 18.043331], [-73.783686, 18.042658], [-73.784806, 18.041906], [-73.78679, 18.041873], [-73.789417, 18.040281], [-73.790894, 18.03842], [-73.791002, 18.036478], [-73.790421, 18.035832], [-73.790288, 18.034467], [-73.788623, 18.033444], [-73.787565, 18.032164], [-73.788031, 18.03035], [-73.78853, 18.029206], [-73.791136, 18.026583], [-73.792649, 18.026312], [-73.793168, 18.026361], [-73.794739, 18.027283], [-73.797079, 18.027759], [-73.798125, 18.026753], [-73.798285, 18.02398], [-73.799439, 18.023707], [-73.8006, 18.023822], [-73.800805, 18.024293], [-73.799893, 18.02502], [-73.799956, 18.025463], [-73.800397, 18.025981], [-73.800933, 18.026364], [-73.802018, 18.026524], [-73.802968, 18.025635], [-73.803257, 18.024833], [-73.803265, 18.023667], [-73.804285, 18.023637], [-73.804831, 18.022601], [-73.808855, 18.022599], [-73.809632, 18.022269], [-73.810554, 18.022799], [-73.812872, 18.022199], [-73.814114, 18.022866], [-73.81542, 18.022558], [-73.816696, 18.022394], [-73.819258, 18.023557], [-73.822655, 18.024066], [-73.824208, 18.024898], [-73.824653, 18.024756], [-73.825926, 18.025035], [-73.82637, 18.026456], [-73.826033, 18.027449], [-73.826081, 18.033061], [-73.828771, 18.034722], [-73.827789, 18.036162], [-73.826831, 18.03678], [-73.828004, 18.037889], [-73.828657, 18.039213], [-73.828026, 18.041748], [-73.829639, 18.042129], [-73.831085, 18.043493], [-73.828656, 18.046442], [-73.827773, 18.048588], [-73.828301, 18.051555], [-73.831692, 18.054513], [-73.834576, 18.057034], [-73.836926, 18.060319], [-73.838658, 18.064053], [-73.839526, 18.068586], [-73.835187, 18.073295], [-73.83271, 18.074853], [-73.825282, 18.076515], [-73.819186, 18.075294], [-73.815359, 18.075416], [-73.81335, 18.077635], [-73.812394, 18.077991], [-73.811659, 18.077589], [-73.810844, 18.076563], [-73.810187, 18.075863]]]}}]}