{"type": "FeatureCollection", "features": [{"type": "Feature", "properties": {"nom": "République dominicaine", "source": "Natural Earth 10m admin_0, simplifié 0.004°"}, "geometry": {"type": "MultiPolygon", "coordinates": [[[[-71.75743567599994, 19.710109768000052], [-71.72032630099994, 19.69745514500005], [-71.74185136599993, 19.755804755000042], [-71.74079342399995, 19.773179429000038], [-71.7676488919999, 19.77448151200008], [-71.77106686099995, 19.78514232000009], [-71.74449622299994, 19.817206122000073], [-71.71690833199995, 19.82363515800006], [-71.69981848899994, 19.841498114000046], [-71.65880286399994, 19.86196523600006], [-71.66673743399991, 19.885687567000048], [-71.6614477199999, 19.89362213700008], [-71.64858964799993, 19.89671458500004], [-71.62124589799993, 19.88930898600006], [-71.60732988199993, 19.902899481000077], [-71.50462805899991, 19.91034577000005], [-71.45270748599995, 19.898098049000055], [-71.35724850199995, 19.851263739000046], [-71.32921301999994, 19.84589264500005], [-71.30260169199994, 19.85569896000004], [-71.26805579299992, 19.83551666900007], [-71.21206620999993, 19.837103583000044], [-71.20352128799993, 19.865383205000057], [-71.19176184799994, 19.869696356000077], [-71.17223059799994, 19.834051825000074], [-71.15172278599994, 19.85569896000004], [-71.16201738199993, 19.859442450000074], [-71.16539466099994, 19.868801174000055], [-71.1497289699999, 19.863023179000038], [-71.10704505099994, 19.868801174000055], [-71.09679114499994, 19.876206773000035], [-71.07827714799993, 19.909125067000048], [-71.01842200399994, 19.935492255000042], [-71.00088456899994, 19.93768952000005], [-70.96934973899994, 19.92519765800006], [-70.96104895699995, 19.912665106000077], [-70.96617591099994, 19.89671458500004], [-70.94688880099994, 19.88930898600006], [-70.93944251199991, 19.88930898600006], [-70.94688880099994, 19.91034577000005], [-70.8985082669999, 19.902899481000077], [-70.84325110599991, 19.91034577000005], [-70.78697669199994, 19.852850653000075], [-70.78331458199995, 19.84332916900007], [-70.78864498599995, 19.834051825000074], [-70.75096594999991, 19.833807684000078], [-70.69847571499992, 19.796820380000042], [-70.62368730399993, 19.766546942000048], [-70.51870683499993, 19.75975169500009], [-70.4727270169999, 19.786851304000038], [-70.43370520699995, 19.775213934000078], [-70.33617102799991, 19.67763906500005], [-70.28083248599995, 19.65180084800005], [-70.11644446499992, 19.622381903000075], [-70.09752356699994, 19.633205471000053], [-70.06102454299992, 19.67011139500005], [-70.04210364499994, 19.67845286700009], [-69.94725501199991, 19.678656317000048], [-69.89793860599991, 19.635972398000035], [-69.88719641799992, 19.61273834800005], [-69.88776607999995, 19.58734772300005], [-69.90416419199994, 19.532375393000052], [-69.88414466099994, 19.52440013200004], [-69.87653561099995, 19.506659247000073], [-69.87682044199994, 19.461004950000074], [-69.86799068899995, 19.42527903900009], [-69.80138098899994, 19.330877997000073], [-69.76768958199995, 19.299750067000048], [-69.73346920499995, 19.28656647300005], [-69.71320553299995, 19.28974030200004], [-69.67438717399995, 19.303859768000052], [-69.58942623599995, 19.31281159100007], [-69.52798417899993, 19.34178294500009], [-69.48330644399994, 19.32758209800005], [-69.43736731699994, 19.332953192000048], [-69.42861894399994, 19.319240627000056], [-69.41071529899995, 19.32758209800005], [-69.33560136599993, 19.293402411000045], [-69.3242895169999, 19.31509023600006], [-69.30589758999992, 19.33112213700008], [-69.23127193899995, 19.363348700000074], [-69.22435462099992, 19.35179271000004], [-69.24681555899991, 19.299627997000073], [-69.20433508999992, 19.292792059000078], [-69.16429602799991, 19.307033596000053], [-69.15835527299993, 19.285101630000042], [-69.18932044199994, 19.25226471600007], [-69.21434485599991, 19.20062897300005], [-69.23180091099994, 19.188666083000044], [-69.25365149599992, 19.183539130000042], [-69.33214270699995, 19.197211005000042], [-69.41812089799993, 19.19098541900007], [-69.47545325399994, 19.214016018000052], [-69.60293535099993, 19.228989976000037], [-69.61729895699995, 19.22524648600006], [-69.63353430899991, 19.12368398600006], [-69.63044186099995, 19.10846588700008], [-69.60846920499995, 19.093451239000046], [-69.55329342399995, 19.10146719000005], [-69.53425045499995, 19.09479401200008], [-69.51048743399991, 19.102036851000037], [-69.46344967399995, 19.08470286700009], [-69.43862870999993, 19.08734772300005], [-69.47337805899991, 19.101629950000074], [-69.47337805899991, 19.10846588700008], [-69.4199926419999, 19.111151434000078], [-69.38670813699991, 19.096096096000053], [-69.37295488199993, 19.065375067000048], [-69.35606848899994, 19.053208726000037], [-69.17324785099993, 19.01113515800006], [-69.13866126199991, 19.022284247000073], [-69.15733801999994, 19.03668854400007], [-69.15746008999992, 19.04637278900009], [-69.13951575399994, 19.051214911000045], [-69.1028539699999, 19.00535716400009], [-69.06118730399993, 18.98818594000005], [-69.05443274599992, 18.977484442000048], [-69.00658118399991, 19.00535716400009], [-69.01423092399995, 19.013413804000038], [-68.99299068899995, 19.018459377000056], [-68.97541256399995, 19.033148505000042], [-68.91860917899993, 19.027289130000042], [-68.88312740799995, 19.012193101000037], [-68.8762914699999, 18.998602606000077], [-68.79588782499991, 18.984116929000038], [-68.76781165299991, 18.96946849200009], [-68.73973548099991, 18.96442291900007], [-68.62352454299992, 18.861883856000077], [-68.58079993399991, 18.812567450000074], [-68.45856686099995, 18.731024481000077], [-68.4134008449999, 18.689601955000057], [-68.35619055899991, 18.65656159100007], [-68.32860266799992, 18.616522528000075], [-68.33405514199995, 18.577297268000052], [-68.44127356699994, 18.429022528000075], [-68.44432532499991, 18.374823309000078], [-68.45567786399994, 18.357855536000045], [-68.47215735599991, 18.34983958500004], [-68.51659094999991, 18.347479559000078], [-68.58893795499995, 18.38226959800005], [-68.60545813699991, 18.37173086100006], [-68.59752356699994, 18.33661530200004], [-68.62608801999994, 18.283351955000057], [-68.64708411399994, 18.21482982000009], [-68.74299068899995, 18.20453522300005], [-68.76024329299992, 18.21035390800006], [-68.76252193899995, 18.246975002000056], [-68.78685462099992, 18.295396226000037], [-68.82013912699995, 18.34247467700004], [-68.84959876199991, 18.374823309000078], [-68.88097083199995, 18.39549388200004], [-68.92251542899993, 18.41229889500005], [-68.96434485599991, 18.41795482000009], [-69.01256262899994, 18.39911530200004], [-69.08543860599991, 18.39590078300006], [-69.18529212099992, 18.421698309000078], [-69.21422278599994, 18.445135809000078], [-69.23631751199991, 18.450506903000075], [-69.29503333199995, 18.43903229400007], [-69.31509355399993, 18.450506903000075], [-69.3360082669999, 18.432074286000045], [-69.46593176999994, 18.42255280200004], [-69.50475012899994, 18.40892161700009], [-69.52525794199994, 18.40843333500004], [-69.57998613199993, 18.444484768000052], [-69.61681067599994, 18.45734284100007], [-69.62315833199995, 18.44798411700009], [-69.62360592399995, 18.41632721600007], [-69.64659583199995, 18.41356028900009], [-69.66515051999994, 18.41950104400007], [-69.68195553299995, 18.44676341400009], [-69.69737708199995, 18.456366278000075], [-69.85147050699993, 18.472479559000078], [-69.89981035099993, 18.466457424000055], [-70.01659094999991, 18.411363023000092], [-70.03892981699994, 18.39248281500005], [-70.05577551999994, 18.367254950000074], [-70.0676977199999, 18.32908763200004], [-70.09068762899994, 18.317531643000052], [-70.10000566299993, 18.299221096000053], [-70.17178300699993, 18.23143138200004], [-70.20213782499991, 18.233547268000052], [-70.23314368399991, 18.223944403000075], [-70.2696020169999, 18.238104559000078], [-70.39757239499994, 18.237616278000075], [-70.46019446499992, 18.208929755000042], [-70.55284583199995, 18.204250393000052], [-70.56891842399995, 18.21035390800006], [-70.57030188699991, 18.21893952000005], [-70.54906165299991, 18.237616278000075], [-70.55190995999993, 18.248439846000053], [-70.59679114499994, 18.289129950000074], [-70.59434973899994, 18.29905833500004], [-70.57640540299991, 18.31395091400009], [-70.57176673099991, 18.334051825000074], [-70.57945716099994, 18.385646877000056], [-70.60142981699994, 18.411851304000038], [-70.63780676999994, 18.429388739000046], [-70.68248450399994, 18.435614325000074], [-70.70384680899991, 18.430121161000045], [-70.71288001199991, 18.412665106000077], [-70.71198482999995, 18.383368231000077], [-70.74168860599991, 18.355414130000042], [-70.76065019399994, 18.347479559000078], [-70.80231686099995, 18.35492584800005], [-70.82396399599992, 18.342678127000056], [-70.84601803299995, 18.342189846000053], [-70.86034094999991, 18.33071523600006], [-70.87328040299991, 18.306301174000055], [-70.89167232999995, 18.299709377000056], [-70.93248450399994, 18.261542059000078], [-70.96580969999991, 18.262152411000045], [-70.98379472599993, 18.289129950000074], [-71.00487219999991, 18.30101146000004], [-71.04824785099993, 18.31000397300005], [-71.08397376199991, 18.304388739000046], [-71.10334225199995, 18.25495026200008], [-71.10142981699994, 18.242132880000042], [-71.08283443899995, 18.217718817000048], [-71.06110592399995, 18.14207591400009], [-71.08055579299992, 18.11391836100006], [-71.09715735599991, 18.07371653900009], [-71.19180253799993, 17.941799221000053], [-71.20425370999993, 17.91111888200004], [-71.24592037699995, 17.88507721600007], [-71.26781165299991, 17.846584377000056], [-71.28209387899994, 17.853989976000037], [-71.28892981699994, 17.841009833000044], [-71.28209387899994, 17.841009833000044], [-71.28612219999991, 17.832586981000077], [-71.30931555899991, 17.81639232000009], [-71.33185787699995, 17.772406317000048], [-71.36554928299995, 17.67841217700004], [-71.41722571499992, 17.604803778000075], [-71.44611568899995, 17.629339911000045], [-71.51488196499992, 17.73777903900009], [-71.53160559799994, 17.755072333000044], [-71.56525631399995, 17.767523505000042], [-71.64513098899994, 17.75726959800005], [-71.67931067599994, 17.765285549000055], [-71.6309301419999, 17.816799221000053], [-71.63658606699994, 17.853461005000042], [-71.66494706899994, 17.903469143000052], [-71.65880286399994, 17.95331452000005], [-71.68382727799991, 17.990179755000042], [-71.72032630099994, 18.01911041900007], [-71.77623450399994, 18.039252020000063], [-71.7606538499999, 18.086804097000098], [-71.76220414199992, 18.132486064000105], [-71.77682857299988, 18.18178538000008], [-71.77403804599993, 18.201474101000045], [-71.70933915199993, 18.313250224000015], [-71.7349706629999, 18.332938945000066], [-71.78871415299992, 18.352214254000003], [-71.82643794799986, 18.37616628100001], [-71.85816727799988, 18.41355417900006], [-71.91216914899985, 18.43073659300005], [-71.91816361599987, 18.449236755000058], [-71.90157547999988, 18.469778138000052], [-71.90405594999996, 18.48479014100012], [-72.00094925999989, 18.58245859800006], [-72.0098376059999, 18.59881418900001], [-71.99262935399992, 18.61113901800006], [-71.95547399999992, 18.618606262000085], [-71.88028479099998, 18.605402933999997], [-71.84157914199997, 18.617986145000103], [-71.79434688399994, 18.679171041000032], [-71.74406571499989, 18.711442973000104], [-71.72034623299993, 18.76544484500009], [-71.7334720469999, 18.882569478999997], [-71.77295283999993, 18.921714376000054], [-71.79625891099997, 18.957061056000057], [-71.81966833499993, 18.957810364000053], [-71.86245642199995, 18.947087504000038], [-71.86540197799985, 18.964424948000058], [-71.84814204899996, 18.97548370400004], [-71.78370153799995, 18.996309306000015], [-71.71042435699994, 19.081652934000104], [-71.6613834229999, 19.117593893000063], [-71.64365840699989, 19.15247548400005], [-71.63911088099988, 19.212110088000045], [-71.71652217699989, 19.247766825000028], [-71.7537292069999, 19.28378529900003], [-71.77155757699995, 19.307556457000075], [-71.7765185149999, 19.327503561000086], [-71.7334720469999, 19.35546051100009], [-71.70386145099985, 19.41463002500008], [-71.70318965699997, 19.459278463000103], [-71.71512691299992, 19.53746490500005], [-71.74308386299992, 19.60007090300006], [-71.74504756699994, 19.664898987000058], [-71.75743567599994, 19.710109768000052]]], [[[-71.52448482999995, 17.54555898600006], [-71.54116777299993, 17.554632880000042], [-71.54137122299994, 17.57615794500009], [-71.52106686099995, 17.62128327000005], [-71.46711178299995, 17.58026764500005], [-71.48253333199995, 17.57562897300005], [-71.50739498599995, 17.551255601000037], [-71.52448482999995, 17.54555898600006]]], [[[-68.71076412699995, 18.17536041900007], [-68.59878495999993, 18.16620514500005], [-68.57750403599994, 18.133734442000048], [-68.57184811099995, 18.107855536000045], [-68.63609778599994, 18.12836334800005], [-68.70189368399991, 18.11469147300005], [-68.73704993399991, 18.123602606000077], [-68.76207434799994, 18.14516836100006], [-68.78693600199995, 18.19668203300006], [-68.75454667899993, 18.197658596000053], [-68.71076412699995, 18.17536041900007]]]]}}]}